{
"type": "FeatureCollection",
"name": "beach",
"crs": { "type": "name", "properties": { "name": "urn:ogc:def:crs:OGC:1.3:CRS84" } },
"features": [
{"type":"Feature","properties":{"id":null,"Name":"Dehiwala Beach","descriptio":null,"timestamp":null,"begin":null,"end":null,"altitudeMo":null,"tessellate":-1,"extrude":0,"visibility":-1,"drawOrder":null,"icon":null},"geometry":{"type":"Point","coordinates":[79.8620214,6.8482441,0.0]}},
{"type":"Feature","properties":{"id":null,"Name":"Preethipura Beach","descriptio":null,"timestamp":null,"begin":null,"end":null,"altitudeMo":null,"tessellate":-1,"extrude":0,"visibility":-1,"drawOrder":null,"icon":null},"geometry":{"type":"Point","coordinates":[79.867315,6.996325,0.0]}},
{"type":"Feature","properties":{"id":null,"Name":"Crow Island Beach Park","descriptio":null,"timestamp":null,"begin":null,"end":null,"altitudeMo":null,"tessellate":-1,"extrude":0,"visibility":-1,"drawOrder":null,"icon":null},"geometry":{"type":"Point","coordinates":[79.8694062,6.9733731,0.0]}},
{"type":"Feature","properties":{"id":null,"Name":"Mount Lavinia Beach.","descriptio":null,"timestamp":null,"begin":null,"end":null,"altitudeMo":null,"tessellate":-1,"extrude":0,"visibility":-1,"drawOrder":null,"icon":null},"geometry":{"type":"Point","coordinates":[79.862924,6.8383817,0.0]}},
{"type":"Feature","properties":{"id":null,"Name":"Wellawatte Beach","descriptio":null,"timestamp":null,"begin":null,"end":null,"altitudeMo":null,"tessellate":-1,"extrude":0,"visibility":-1,"drawOrder":null,"icon":null},"geometry":{"type":"Point","coordinates":[79.8566326,6.8762293,0.0]}},
{"type":"Feature","properties":{"id":null,"Name":"Crow Island Beach","descriptio":null,"timestamp":null,"begin":null,"end":null,"altitudeMo":null,"tessellate":-1,"extrude":0,"visibility":-1,"drawOrder":null,"icon":null},"geometry":{"type":"Point","coordinates":[79.8692337,6.9731247,0.0]}},
{"type":"Feature","properties":{"id":null,"Name":"Pearl Beach Paradise","descriptio":null,"timestamp":null,"begin":null,"end":null,"altitudeMo":null,"tessellate":-1,"extrude":0,"visibility":-1,"drawOrder":null,"icon":null},"geometry":{"type":"Point","coordinates":[79.8592892,6.86521,0.0]}},
{"type":"Feature","properties":{"id":null,"Name":"Wellawatte beach","descriptio":null,"timestamp":null,"begin":null,"end":null,"altitudeMo":null,"tessellate":-1,"extrude":0,"visibility":-1,"drawOrder":null,"icon":null},"geometry":{"type":"Point","coordinates":[79.856654,6.876352,0.0]}},
{"type":"Feature","properties":{"id":null,"Name":"Besama Beach","descriptio":null,"timestamp":null,"begin":null,"end":null,"altitudeMo":null,"tessellate":-1,"extrude":0,"visibility":-1,"drawOrder":null,"icon":null},"geometry":{"type":"Point","coordinates":[79.8625659,7.0225241,0.0]}},
{"type":"Feature","properties":{"id":null,"Name":"Bellevue Beach Club","descriptio":null,"timestamp":null,"begin":null,"end":null,"altitudeMo":null,"tessellate":-1,"extrude":0,"visibility":-1,"drawOrder":null,"icon":null},"geometry":{"type":"Point","coordinates":[79.8264905,6.9277522,0.0]}},
{"type":"Feature","properties":{"id":null,"Name":"Mount Lavinia Beach.","descriptio":null,"timestamp":null,"begin":null,"end":null,"altitudeMo":null,"tessellate":-1,"extrude":0,"visibility":-1,"drawOrder":null,"icon":null},"geometry":{"type":"Point","coordinates":[79.862924,6.8383817,0.0]}},
{"type":"Feature","properties":{"id":null,"Name":"Wadduwa Beach","descriptio":null,"timestamp":null,"begin":null,"end":null,"altitudeMo":null,"tessellate":-1,"extrude":0,"visibility":-1,"drawOrder":null,"icon":null},"geometry":{"type":"Point","coordinates":[79.9231094,6.6688021,0.0]}},
{"type":"Feature","properties":{"id":null,"Name":"Bopitiya Beach","descriptio":null,"timestamp":null,"begin":null,"end":null,"altitudeMo":null,"tessellate":-1,"extrude":0,"visibility":-1,"drawOrder":null,"icon":null},"geometry":{"type":"Point","coordinates":[79.8485544,7.0820998,0.0]}},
{"type":"Feature","properties":{"id":null,"Name":"Navro Beach Resort","descriptio":null,"timestamp":null,"begin":null,"end":null,"altitudeMo":null,"tessellate":-1,"extrude":0,"visibility":-1,"drawOrder":null,"icon":null},"geometry":{"type":"Point","coordinates":[79.902527,6.7134187,0.0]}},
{"type":"Feature","properties":{"id":null,"Name":"Pothupitiya Beach","descriptio":null,"timestamp":null,"begin":null,"end":null,"altitudeMo":null,"tessellate":-1,"extrude":0,"visibility":-1,"drawOrder":null,"icon":null},"geometry":{"type":"Point","coordinates":[79.9380874,6.6332402,0.0]}},
{"type":"Feature","properties":{"id":null,"Name":"Crow Island Beach","descriptio":null,"timestamp":null,"begin":null,"end":null,"altitudeMo":null,"tessellate":-1,"extrude":0,"visibility":-1,"drawOrder":null,"icon":null},"geometry":{"type":"Point","coordinates":[79.8692337,6.9731247,0.0]}},
{"type":"Feature","properties":{"id":null,"Name":"Panadura Beach","descriptio":null,"timestamp":null,"begin":null,"end":null,"altitudeMo":null,"tessellate":-1,"extrude":0,"visibility":-1,"drawOrder":null,"icon":null},"geometry":{"type":"Point","coordinates":[79.902128,6.7113969,0.0]}},
{"type":"Feature","properties":{"id":null,"Name":"Uswetakeiyawa Beach","descriptio":null,"timestamp":null,"begin":null,"end":null,"altitudeMo":null,"tessellate":-1,"extrude":0,"visibility":-1,"drawOrder":null,"icon":null},"geometry":{"type":"Point","coordinates":[79.8617136,7.0257173,0.0]}},
{"type":"Feature","properties":{"id":null,"Name":"Wellawatte Beach","descriptio":null,"timestamp":null,"begin":null,"end":null,"altitudeMo":null,"tessellate":-1,"extrude":0,"visibility":-1,"drawOrder":null,"icon":null},"geometry":{"type":"Point","coordinates":[79.8566326,6.8762293,0.0]}},
{"type":"Feature","properties":{"id":null,"Name":"Dehiwala Beach","descriptio":null,"timestamp":null,"begin":null,"end":null,"altitudeMo":null,"tessellate":-1,"extrude":0,"visibility":-1,"drawOrder":null,"icon":null},"geometry":{"type":"Point","coordinates":[79.8620214,6.8482441,0.0]}},
{"type":"Feature","properties":{"id":null,"Name":"Mount Lavinia Beach.","descriptio":null,"timestamp":null,"begin":null,"end":null,"altitudeMo":null,"tessellate":-1,"extrude":0,"visibility":-1,"drawOrder":null,"icon":null},"geometry":{"type":"Point","coordinates":[79.862924,6.8383817,0.0]}},
{"type":"Feature","properties":{"id":null,"Name":"Moragalla Beach","descriptio":null,"timestamp":null,"begin":null,"end":null,"altitudeMo":null,"tessellate":-1,"extrude":0,"visibility":-1,"drawOrder":null,"icon":null},"geometry":{"type":"Point","coordinates":[79.9848342,6.4459293,0.0]}},
{"type":"Feature","properties":{"id":null,"Name":"Kalido Beach Kalutara","descriptio":null,"timestamp":null,"begin":null,"end":null,"altitudeMo":null,"tessellate":-1,"extrude":0,"visibility":-1,"drawOrder":null,"icon":null},"geometry":{"type":"Point","coordinates":[79.9550022,6.5879721,0.0]}},
{"type":"Feature","properties":{"id":null,"Name":"Katukurunda Beach","descriptio":null,"timestamp":null,"begin":null,"end":null,"altitudeMo":null,"tessellate":-1,"extrude":0,"visibility":-1,"drawOrder":null,"icon":null},"geometry":{"type":"Point","coordinates":[79.9648526,6.5551472,0.0]}},
{"type":"Feature","properties":{"id":null,"Name":"Kaluthara Beach","descriptio":null,"timestamp":null,"begin":null,"end":null,"altitudeMo":null,"tessellate":-1,"extrude":0,"visibility":-1,"drawOrder":null,"icon":null},"geometry":{"type":"Point","coordinates":[79.9588488,6.5833153,0.0]}},
{"type":"Feature","properties":{"id":null,"Name":"Bopitiya Beach","descriptio":null,"timestamp":null,"begin":null,"end":null,"altitudeMo":null,"tessellate":-1,"extrude":0,"visibility":-1,"drawOrder":null,"icon":null},"geometry":{"type":"Point","coordinates":[79.8485544,7.0820998,0.0]}},
{"type":"Feature","properties":{"id":null,"Name":"Kalutara Beach","descriptio":null,"timestamp":null,"begin":null,"end":null,"altitudeMo":null,"tessellate":-1,"extrude":0,"visibility":-1,"drawOrder":null,"icon":null},"geometry":{"type":"Point","coordinates":[79.9474179,6.6098466,0.0]}},
{"type":"Feature","properties":{"id":null,"Name":"Wadduwa Beach","descriptio":null,"timestamp":null,"begin":null,"end":null,"altitudeMo":null,"tessellate":-1,"extrude":0,"visibility":-1,"drawOrder":null,"icon":null},"geometry":{"type":"Point","coordinates":[79.9231094,6.6688021,0.0]}},
{"type":"Feature","properties":{"id":null,"Name":"Browns Beach","descriptio":null,"timestamp":null,"begin":null,"end":null,"altitudeMo":null,"tessellate":-1,"extrude":0,"visibility":-1,"drawOrder":null,"icon":null},"geometry":{"type":"Point","coordinates":[79.8408008,7.2377146,0.0]}},
{"type":"Feature","properties":{"id":null,"Name":"Ettukala Beach","descriptio":null,"timestamp":null,"begin":null,"end":null,"altitudeMo":null,"tessellate":-1,"extrude":0,"visibility":-1,"drawOrder":null,"icon":null},"geometry":{"type":"Point","coordinates":[79.8405284,7.2409177,0.0]}},
{"type":"Feature","properties":{"id":null,"Name":"Bopitiya Beach","descriptio":null,"timestamp":null,"begin":null,"end":null,"altitudeMo":null,"tessellate":-1,"extrude":0,"visibility":-1,"drawOrder":null,"icon":null},"geometry":{"type":"Point","coordinates":[79.8485544,7.0820998,0.0]}},
{"type":"Feature","properties":{"id":null,"Name":"Poruthota beach","descriptio":null,"timestamp":null,"begin":null,"end":null,"altitudeMo":null,"tessellate":-1,"extrude":0,"visibility":-1,"drawOrder":null,"icon":null},"geometry":{"type":"Point","coordinates":[79.8421251,7.2587646,0.0]}},
{"type":"Feature","properties":{"id":null,"Name":"Honey Beach Negombo","descriptio":null,"timestamp":null,"begin":null,"end":null,"altitudeMo":null,"tessellate":-1,"extrude":0,"visibility":-1,"drawOrder":null,"icon":null},"geometry":{"type":"Point","coordinates":[79.8416036,7.2397588,0.0]}},
{"type":"Feature","properties":{"id":null,"Name":"Koko Beach Club","descriptio":null,"timestamp":null,"begin":null,"end":null,"altitudeMo":null,"tessellate":-1,"extrude":0,"visibility":-1,"drawOrder":null,"icon":null},"geometry":{"type":"Point","coordinates":[79.8414168,7.2384305,0.0]}},
{"type":"Feature","properties":{"id":null,"Name":"Marvel Beach, Poruthota","descriptio":null,"timestamp":null,"begin":null,"end":null,"altitudeMo":null,"tessellate":-1,"extrude":0,"visibility":-1,"drawOrder":null,"icon":null},"geometry":{"type":"Point","coordinates":[79.8420091,7.2591341,0.0]}},
{"type":"Feature","properties":{"id":null,"Name":"Topaz Beach","descriptio":null,"timestamp":null,"begin":null,"end":null,"altitudeMo":null,"tessellate":-1,"extrude":0,"visibility":-1,"drawOrder":null,"icon":null},"geometry":{"type":"Point","coordinates":[79.8405567,7.2395003,0.0]}},
{"type":"Feature","properties":{"id":null,"Name":"Camelot Beach Hotel","descriptio":null,"timestamp":null,"begin":null,"end":null,"altitudeMo":null,"tessellate":-1,"extrude":0,"visibility":-1,"drawOrder":null,"icon":null},"geometry":{"type":"Point","coordinates":[79.8411088,7.233197,0.0]}},
{"type":"Feature","properties":{"id":null,"Name":"Mount Lavinia Beach.","descriptio":null,"timestamp":null,"begin":null,"end":null,"altitudeMo":null,"tessellate":-1,"extrude":0,"visibility":-1,"drawOrder":null,"icon":null},"geometry":{"type":"Point","coordinates":[79.862924,6.8383817,0.0]}},
{"type":"Feature","properties":{"id":null,"Name":"Morawala Beach","descriptio":null,"timestamp":null,"begin":null,"end":null,"altitudeMo":null,"tessellate":-1,"extrude":0,"visibility":-1,"drawOrder":null,"icon":null},"geometry":{"type":"Point","coordinates":[79.8173475,7.2041099,0.0]}},
{"type":"Feature","properties":{"id":null,"Name":"Bopitiya Beach","descriptio":null,"timestamp":null,"begin":null,"end":null,"altitudeMo":null,"tessellate":-1,"extrude":0,"visibility":-1,"drawOrder":null,"icon":null},"geometry":{"type":"Point","coordinates":[79.8485544,7.0820998,0.0]}},
{"type":"Feature","properties":{"id":null,"Name":"Dungalpitiya Beach","descriptio":null,"timestamp":null,"begin":null,"end":null,"altitudeMo":null,"tessellate":-1,"extrude":0,"visibility":-1,"drawOrder":null,"icon":null},"geometry":{"type":"Point","coordinates":[79.8293847,7.1510066,0.0]}},
{"type":"Feature","properties":{"id":null,"Name":"Uswetakeiyawa Beach","descriptio":null,"timestamp":null,"begin":null,"end":null,"altitudeMo":null,"tessellate":-1,"extrude":0,"visibility":-1,"drawOrder":null,"icon":null},"geometry":{"type":"Point","coordinates":[79.8617136,7.0257173,0.0]}},
{"type":"Feature","properties":{"id":null,"Name":"Preethipura Beach","descriptio":null,"timestamp":null,"begin":null,"end":null,"altitudeMo":null,"tessellate":-1,"extrude":0,"visibility":-1,"drawOrder":null,"icon":null},"geometry":{"type":"Point","coordinates":[79.867315,6.996325,0.0]}},
{"type":"Feature","properties":{"id":null,"Name":"Browns Beach","descriptio":null,"timestamp":null,"begin":null,"end":null,"altitudeMo":null,"tessellate":-1,"extrude":0,"visibility":-1,"drawOrder":null,"icon":null},"geometry":{"type":"Point","coordinates":[79.8408008,7.2377146,0.0]}},
{"type":"Feature","properties":{"id":null,"Name":"Ettukala Beach","descriptio":null,"timestamp":null,"begin":null,"end":null,"altitudeMo":null,"tessellate":-1,"extrude":0,"visibility":-1,"drawOrder":null,"icon":null},"geometry":{"type":"Point","coordinates":[79.8405284,7.2409177,0.0]}},
{"type":"Feature","properties":{"id":null,"Name":"Coconut tree beach negombo","descriptio":null,"timestamp":null,"begin":null,"end":null,"altitudeMo":null,"tessellate":-1,"extrude":0,"visibility":-1,"drawOrder":null,"icon":null},"geometry":{"type":"Point","coordinates":[79.8229587,7.1757467,0.0]}},
{"type":"Feature","properties":{"id":null,"Name":"Pamunugama Beach","descriptio":null,"timestamp":null,"begin":null,"end":null,"altitudeMo":null,"tessellate":-1,"extrude":0,"visibility":-1,"drawOrder":null,"icon":null},"geometry":{"type":"Point","coordinates":[79.8467703,7.0917512,0.0]}},
{"type":"Feature","properties":{"id":null,"Name":"Wellawatte Beach","descriptio":null,"timestamp":null,"begin":null,"end":null,"altitudeMo":null,"tessellate":-1,"extrude":0,"visibility":-1,"drawOrder":null,"icon":null},"geometry":{"type":"Point","coordinates":[79.8566326,6.8762293,0.0]}},
{"type":"Feature","properties":{"id":null,"Name":"Sarakkuwa Beach","descriptio":null,"timestamp":null,"begin":null,"end":null,"altitudeMo":null,"tessellate":-1,"extrude":0,"visibility":-1,"drawOrder":null,"icon":null},"geometry":{"type":"Point","coordinates":[79.8422954,7.1123525,0.0]}},
{"type":"Feature","properties":{"id":null,"Name":"Angulana Beach","descriptio":null,"timestamp":null,"begin":null,"end":null,"altitudeMo":null,"tessellate":-1,"extrude":0,"visibility":-1,"drawOrder":null,"icon":null},"geometry":{"type":"Point","coordinates":[79.8727938,6.7952371,0.0]}},
{"type":"Feature","properties":{"id":null,"Name":"Galle Face Park & Beach","descriptio":null,"timestamp":null,"begin":null,"end":null,"altitudeMo":null,"tessellate":-1,"extrude":0,"visibility":-1,"drawOrder":null,"icon":null},"geometry":{"type":"Point","coordinates":[79.8443963,6.9260629,0.0]}},
{"type":"Feature","properties":{"id":null,"Name":"Uswella beach","descriptio":null,"timestamp":null,"begin":null,"end":null,"altitudeMo":null,"tessellate":-1,"extrude":0,"visibility":-1,"drawOrder":null,"icon":null},"geometry":{"type":"Point","coordinates":[79.9772123,6.5025481,0.0]}},
{"type":"Feature","properties":{"id":null,"Name":"Beruwala Beach","descriptio":null,"timestamp":null,"begin":null,"end":null,"altitudeMo":null,"tessellate":-1,"extrude":0,"visibility":-1,"drawOrder":null,"icon":null},"geometry":{"type":"Point","coordinates":[79.9826368,6.4888943,0.0]}},
{"type":"Feature","properties":{"id":null,"Name":"Ketchimala Beach ????? ??","descriptio":null,"timestamp":null,"begin":null,"end":null,"altitudeMo":null,"tessellate":-1,"extrude":0,"visibility":-1,"drawOrder":null,"icon":null},"geometry":{"type":"Point","coordinates":[79.9757437,6.4722793,0.0]}},
{"type":"Feature","properties":{"id":null,"Name":"Pinwatte beach","descriptio":null,"timestamp":null,"begin":null,"end":null,"altitudeMo":null,"tessellate":-1,"extrude":0,"visibility":-1,"drawOrder":null,"icon":null},"geometry":{"type":"Point","coordinates":[79.9149706,6.6864472,0.0]}},
{"type":"Feature","properties":{"id":null,"Name":"Luna Beach Panadura","descriptio":null,"timestamp":null,"begin":null,"end":null,"altitudeMo":null,"tessellate":-1,"extrude":0,"visibility":-1,"drawOrder":null,"icon":null},"geometry":{"type":"Point","coordinates":[79.9094415,6.6966741,0.0]}},
{"type":"Feature","properties":{"id":null,"Name":"Panadura Beach","descriptio":null,"timestamp":null,"begin":null,"end":null,"altitudeMo":null,"tessellate":-1,"extrude":0,"visibility":-1,"drawOrder":null,"icon":null},"geometry":{"type":"Point","coordinates":[79.9016835,6.7132455,0.0]}},
{"type":"Feature","properties":{"id":null,"Name":"Rathmalana Beach","descriptio":null,"timestamp":null,"begin":null,"end":null,"altitudeMo":null,"tessellate":-1,"extrude":0,"visibility":-1,"drawOrder":null,"icon":null},"geometry":{"type":"Point","coordinates":[79.8665463,6.814374,0.0]}},
{"type":"Feature","properties":{"id":null,"Name":"Bambalapitiya Beach","descriptio":null,"timestamp":null,"begin":null,"end":null,"altitudeMo":null,"tessellate":-1,"extrude":0,"visibility":-1,"drawOrder":null,"icon":null},"geometry":{"type":"Point","coordinates":[79.8543241,6.887208,0.0]}},
{"type":"Feature","properties":{"id":null,"Name":"The Beach Park","descriptio":null,"timestamp":null,"begin":null,"end":null,"altitudeMo":null,"tessellate":-1,"extrude":0,"visibility":-1,"drawOrder":null,"icon":null},"geometry":{"type":"Point","coordinates":[79.8242077,6.9327316,0.0]}}
]
}
