{
"type": "FeatureCollection",
"name": "cities",
"crs": { "type": "name", "properties": { "name": "urn:ogc:def:crs:OGC:1.3:CRS84" } },
"features": [
{"type":"Feature","properties":{"osm_id":"50794342","code":1001,"fclass":"city","population":753000,"name":"Colombo"},"geometry":{"type":"Point","coordinates":[79.8542005,6.9388614]}},
{"type":"Feature","properties":{"osm_id":"51237546","code":1002,"fclass":"town","population":10000,"name":"Pasyala"},"geometry":{"type":"Point","coordinates":[80.1242004,7.1684426]}},
{"type":"Feature","properties":{"osm_id":"51237603","code":1002,"fclass":"town","population":15000,"name":"Kadawatha"},"geometry":{"type":"Point","coordinates":[79.9512673,7.0019661]}},
{"type":"Feature","properties":{"osm_id":"61557398","code":1001,"fclass":"city","population":207000,"name":"Moratuwa"},"geometry":{"type":"Point","coordinates":[79.8826095,6.7746821]}},
{"type":"Feature","properties":{"osm_id":"129616015","code":1002,"fclass":"town","population":5000,"name":"Bandaragama"},"geometry":{"type":"Point","coordinates":[79.9889673,6.7145129]}},
{"type":"Feature","properties":{"osm_id":"134253719","code":1002,"fclass":"town","population":15000,"name":"Dehiwala"},"geometry":{"type":"Point","coordinates":[79.8659769,6.8512785]}},
{"type":"Feature","properties":{"osm_id":"198828328","code":1002,"fclass":"town","population":15000,"name":"Nugegoda"},"geometry":{"type":"Point","coordinates":[79.8882835,6.8699688]}},
{"type":"Feature","properties":{"osm_id":"245519771","code":1002,"fclass":"town","population":5000,"name":"Padukka"},"geometry":{"type":"Point","coordinates":[80.0916472,6.8415384]}},
{"type":"Feature","properties":{"osm_id":"250730974","code":1002,"fclass":"town","population":15000,"name":"Pelawatte"},"geometry":{"type":"Point","coordinates":[79.9289573,6.891596]}},
{"type":"Feature","properties":{"osm_id":"251844978","code":1002,"fclass":"town","population":15000,"name":"Boralesgamuwa"},"geometry":{"type":"Point","coordinates":[79.9017028,6.8410598]}},
{"type":"Feature","properties":{"osm_id":"252542985","code":1002,"fclass":"town","population":32300,"name":"Ja-ela"},"geometry":{"type":"Point","coordinates":[79.8907632,7.0793775]}},
{"type":"Feature","properties":{"osm_id":"256824244","code":1002,"fclass":"town","population":20000,"name":"Battaramulla"},"geometry":{"type":"Point","coordinates":[79.9195776,6.9021809]}},
{"type":"Feature","properties":{"osm_id":"292785668","code":1002,"fclass":"town","population":15000,"name":"Seeduwa"},"geometry":{"type":"Point","coordinates":[79.8762627,7.1311776]}},
{"type":"Feature","properties":{"osm_id":"313407388","code":1002,"fclass":"town","population":15000,"name":"Kochchikade"},"geometry":{"type":"Point","coordinates":[79.8590371,7.2649211]}},
{"type":"Feature","properties":{"osm_id":"540529437","code":1002,"fclass":"town","population":15000,"name":"Matugama"},"geometry":{"type":"Point","coordinates":[80.1142603,6.5229542]}},
{"type":"Feature","properties":{"osm_id":"558931492","code":1002,"fclass":"town","population":15000,"name":"Athurugiriya"},"geometry":{"type":"Point","coordinates":[79.9899292,6.8772464]}},
{"type":"Feature","properties":{"osm_id":"617248525","code":1002,"fclass":"town","population":15000,"name":"Kotugoda"},"geometry":{"type":"Point","coordinates":[79.9247807,7.1234948]}},
{"type":"Feature","properties":{"osm_id":"617248527","code":1002,"fclass":"town","population":10000,"name":"Ekala"},"geometry":{"type":"Point","coordinates":[79.91027,7.1013158]}},
{"type":"Feature","properties":{"osm_id":"619133455","code":1002,"fclass":"town","population":10000,"name":"Thalawathugoda"},"geometry":{"type":"Point","coordinates":[79.9353613,6.8763201]}},
{"type":"Feature","properties":{"osm_id":"619905117","code":1001,"fclass":"city","population":252000,"name":"Kaduwela"},"geometry":{"type":"Point","coordinates":[79.9843311,6.9357027]}},
{"type":"Feature","properties":{"osm_id":"619905135","code":1002,"fclass":"town","population":10000,"name":"Miriswatte"},"geometry":{"type":"Point","coordinates":[80.0163342,7.0733806]}},
{"type":"Feature","properties":{"osm_id":"621150152","code":1002,"fclass":"town","population":15000,"name":"Kiribathgoda"},"geometry":{"type":"Point","coordinates":[79.9273908,6.9780598]}},
{"type":"Feature","properties":{"osm_id":"634848847","code":1002,"fclass":"town","population":5000,"name":"Kirindiwela"},"geometry":{"type":"Point","coordinates":[80.1317271,7.0431455]}},
{"type":"Feature","properties":{"osm_id":"637652815","code":1002,"fclass":"town","population":15000,"name":"Ragama"},"geometry":{"type":"Point","coordinates":[79.9236484,7.0263493]}},
{"type":"Feature","properties":{"osm_id":"637706199","code":1002,"fclass":"town","population":5000,"name":"Ganemulla"},"geometry":{"type":"Point","coordinates":[79.9613944,7.0682842]}},
{"type":"Feature","properties":{"osm_id":"638948677","code":1002,"fclass":"town","population":5000,"name":"Divulapitiya"},"geometry":{"type":"Point","coordinates":[80.0193654,7.2245446]}},
{"type":"Feature","properties":{"osm_id":"638948678","code":1002,"fclass":"town","population":15000,"name":"Meerigama"},"geometry":{"type":"Point","coordinates":[80.1299215,7.2475144]}},
{"type":"Feature","properties":{"osm_id":"638957830","code":1002,"fclass":"town","population":15000,"name":"Veyangoda"},"geometry":{"type":"Point","coordinates":[80.0602466,7.1534492]}},
{"type":"Feature","properties":{"osm_id":"639153516","code":1002,"fclass":"town","population":76800,"name":"Katunayake"},"geometry":{"type":"Point","coordinates":[79.8716676,7.156773]}},
{"type":"Feature","properties":{"osm_id":"639175794","code":1002,"fclass":"town","population":15000,"name":"Katana"},"geometry":{"type":"Point","coordinates":[79.9051957,7.2505527]}},
{"type":"Feature","properties":{"osm_id":"665686382","code":1002,"fclass":"town","population":5000,"name":"Kotikawatte"},"geometry":{"type":"Point","coordinates":[79.9159756,6.9361356]}},
{"type":"Feature","properties":{"osm_id":"666021104","code":1002,"fclass":"town","population":15000,"name":"Angoda"},"geometry":{"type":"Point","coordinates":[79.9257199,6.9360192]}},
{"type":"Feature","properties":{"osm_id":"666021113","code":1002,"fclass":"town","population":15000,"name":"Mulleriyawa"},"geometry":{"type":"Point","coordinates":[79.9405074,6.9272771]}},
{"type":"Feature","properties":{"osm_id":"696519958","code":1002,"fclass":"town","population":10000,"name":"Wellampitiya"},"geometry":{"type":"Point","coordinates":[79.8962142,6.9372438]}},
{"type":"Feature","properties":{"osm_id":"969659938","code":1002,"fclass":"town","population":15000,"name":"Agalawatta"},"geometry":{"type":"Point","coordinates":[80.157362,6.5423445]}},
{"type":"Feature","properties":{"osm_id":"1252523233","code":1002,"fclass":"town","population":15000,"name":"Rawathawatta"},"geometry":{"type":"Point","coordinates":[79.8851587,6.7879337]}},
{"type":"Feature","properties":{"osm_id":"1269983060","code":1002,"fclass":"town","population":15000,"name":"Dungalpitiya"},"geometry":{"type":"Point","coordinates":[79.8320301,7.14691]}},
{"type":"Feature","properties":{"osm_id":"1269983065","code":1002,"fclass":"town","population":5000,"name":"Kapungoda"},"geometry":{"type":"Point","coordinates":[79.841015,7.1189172]}},
{"type":"Feature","properties":{"osm_id":"1529264246","code":1002,"fclass":"town","population":15000,"name":"Katukurunda"},"geometry":{"type":"Point","coordinates":[79.9687314,6.5613291]}},
{"type":"Feature","properties":{"osm_id":"1614298232","code":1002,"fclass":"town","population":15000,"name":"Aluthgama"},"geometry":{"type":"Point","coordinates":[79.9988986,6.4326494]}},
{"type":"Feature","properties":{"osm_id":"1745548902","code":1002,"fclass":"town","population":15000,"name":"Ingiriya"},"geometry":{"type":"Point","coordinates":[80.1766773,6.7437564]}},
{"type":"Feature","properties":{"osm_id":"1788271749","code":1002,"fclass":"town","population":15000,"name":"Meegoda"},"geometry":{"type":"Point","coordinates":[80.0460308,6.8441085]}},
{"type":"Feature","properties":{"osm_id":"1796923177","code":1002,"fclass":"town","population":15000,"name":"Bulathsinhala"},"geometry":{"type":"Point","coordinates":[80.1780249,6.6498951]}},
{"type":"Feature","properties":{"osm_id":"1822512017","code":1001,"fclass":"city","population":39600,"name":"Kalutara"},"geometry":{"type":"Point","coordinates":[79.9612508,6.5835219]}},
{"type":"Feature","properties":{"osm_id":"1822570013","code":1002,"fclass":"town","population":15000,"name":"Nagoda"},"geometry":{"type":"Point","coordinates":[79.989158,6.5686838]}},
{"type":"Feature","properties":{"osm_id":"1827277942","code":1002,"fclass":"town","population":35300,"name":"Beruwala"},"geometry":{"type":"Point","coordinates":[79.9834066,6.4755855]}},
{"type":"Feature","properties":{"osm_id":"1837184844","code":1002,"fclass":"town","population":30200,"name":"Wattala"},"geometry":{"type":"Point","coordinates":[79.8927094,6.9898705]}},
{"type":"Feature","properties":{"osm_id":"1841033463","code":1002,"fclass":"town","population":15000,"name":"Wadduwa"},"geometry":{"type":"Point","coordinates":[79.9305102,6.6639728]}},
{"type":"Feature","properties":{"osm_id":"1843491184","code":1002,"fclass":"town","population":15000,"name":"Hanwella"},"geometry":{"type":"Point","coordinates":[80.0817106,6.9088363]}},
{"type":"Feature","properties":{"osm_id":"1843491276","code":1002,"fclass":"town","population":10000,"name":"Delgoda"},"geometry":{"type":"Point","coordinates":[80.0133277,6.9870574]}},
{"type":"Feature","properties":{"osm_id":"1843491294","code":1002,"fclass":"town","population":10000,"name":"Dekatana"},"geometry":{"type":"Point","coordinates":[80.0430115,6.969635]}},
{"type":"Feature","properties":{"osm_id":"1854630224","code":1002,"fclass":"town","population":15000,"name":"Kosgama"},"geometry":{"type":"Point","coordinates":[80.1370564,6.9406343]}},
{"type":"Feature","properties":{"osm_id":"1854630227","code":1002,"fclass":"town","population":15000,"name":"Pugoda"},"geometry":{"type":"Point","coordinates":[80.1203623,6.9758255]}},
{"type":"Feature","properties":{"osm_id":"1854653001","code":1002,"fclass":"town","population":15000,"name":"Meepe"},"geometry":{"type":"Point","coordinates":[80.0913569,6.8586575]}},
{"type":"Feature","properties":{"osm_id":"1896024292","code":1002,"fclass":"town","population":15000,"name":"Kandana"},"geometry":{"type":"Point","coordinates":[79.8970556,7.0478487]}},
{"type":"Feature","properties":{"osm_id":"1924765777","code":1002,"fclass":"town","population":31300,"name":"Kelaniya"},"geometry":{"type":"Point","coordinates":[79.9172715,6.9501246]}},
{"type":"Feature","properties":{"osm_id":"1994770491","code":1002,"fclass":"town","population":15000,"name":"Baduraliya"},"geometry":{"type":"Point","coordinates":[80.2305795,6.5173375]}},
{"type":"Feature","properties":{"osm_id":"2064194449","code":1001,"fclass":"city","population":142449,"name":"Negombo"},"geometry":{"type":"Point","coordinates":[79.833117,7.2094282]}},
{"type":"Feature","properties":{"osm_id":"2091753195","code":1002,"fclass":"town","population":15000,"name":"Delkanda"},"geometry":{"type":"Point","coordinates":[79.9014222,6.8630854]}},
{"type":"Feature","properties":{"osm_id":"2091951428","code":1001,"fclass":"city","population":64800,"name":"Kolonnawa"},"geometry":{"type":"Point","coordinates":[79.8903143,6.9326254]}},
{"type":"Feature","properties":{"osm_id":"3274475234","code":1002,"fclass":"town","population":50000,"name":"Malabe"},"geometry":{"type":"Point","coordinates":[79.9546189,6.9040723]}},
{"type":"Feature","properties":{"osm_id":"3275779630","code":1001,"fclass":"city","population":115826,"name":"Sri Jayawardenepura Kotte"},"geometry":{"type":"Point","coordinates":[79.9187415,6.8883219]}},
{"type":"Feature","properties":{"osm_id":"3289447451","code":1001,"fclass":"city","population":20000,"name":"Gampaha"},"geometry":{"type":"Point","coordinates":[79.9951396,7.0925595]}},
{"type":"Feature","properties":{"osm_id":"3370500512","code":1002,"fclass":"town","population":15000,"name":"Gothatuwa"},"geometry":{"type":"Point","coordinates":[79.9060604,6.929658]}},
{"type":"Feature","properties":{"osm_id":"3689548032","code":1002,"fclass":"town","population":15000,"name":"Kottawa"},"geometry":{"type":"Point","coordinates":[79.9655312,6.8430139]}},
{"type":"Feature","properties":{"osm_id":"3724170469","code":1002,"fclass":"town","population":15000,"name":"Yakkala"},"geometry":{"type":"Point","coordinates":[80.0335639,7.0859203]}},
{"type":"Feature","properties":{"osm_id":"4448823642","code":1001,"fclass":"city","population":196400,"name":"Maharagama"},"geometry":{"type":"Point","coordinates":[79.9266082,6.8472783]}},
{"type":"Feature","properties":{"osm_id":"4558483172","code":1002,"fclass":"town","population":0,"name":"Nittambuwa"},"geometry":{"type":"Point","coordinates":[80.0955957,7.1438625]}},
{"type":"Feature","properties":{"osm_id":"4647981713","code":1002,"fclass":"town","population":25000,"name":"Homagama"},"geometry":{"type":"Point","coordinates":[80.0034457,6.8412384]}},
{"type":"Feature","properties":{"osm_id":"4688847654","code":1002,"fclass":"town","population":5000,"name":"Weliweriya"},"geometry":{"type":"Point","coordinates":[80.0283491,7.0322787]}},
{"type":"Feature","properties":{"osm_id":"4879825152","code":1002,"fclass":"town","population":0,"name":"Minuwangoda"},"geometry":{"type":"Point","coordinates":[79.9484613,7.1692723]}},
{"type":"Feature","properties":{"osm_id":"5019110305","code":1002,"fclass":"town","population":0,"name":"Puwakpitiya"},"geometry":{"type":"Point","coordinates":[80.1941643,6.9408333]}},
{"type":"Feature","properties":{"osm_id":"5344216182","code":1002,"fclass":"town","population":0,"name":"Mulleriyawa New Town"},"geometry":{"type":"Point","coordinates":[79.9277405,6.9282349]}},
{"type":"Feature","properties":{"osm_id":"5387262384","code":1002,"fclass":"town","population":0,"name":"Pelawaththa"},"geometry":{"type":"Point","coordinates":[80.2165407,6.4057697]}},
{"type":"Feature","properties":{"osm_id":"5968326762","code":1001,"fclass":"city","population":185100,"name":"Kesbewa"},"geometry":{"type":"Point","coordinates":[79.940848,6.7957403]}},
{"type":"Feature","properties":{"osm_id":"6342777698","code":1002,"fclass":"town","population":0,"name":"Malwana"},"geometry":{"type":"Point","coordinates":[80.0151852,6.948103]}},
{"type":"Feature","properties":{"osm_id":"12365237666","code":1002,"fclass":"town","population":0,"name":"Dharga Town"},"geometry":{"type":"Point","coordinates":[80.0047185,6.4386901]}}
]
}
