{
"type": "FeatureCollection",
"name": "diving_spots",
"crs": { "type": "name", "properties": { "name": "urn:ogc:def:crs:OGC:1.3:CRS84" } },
"features": [
{"type":"Feature","properties":{"id":null,"Name":"Sri Lanka Diving Tours, Negombo, PADI 5 Star IDC Center","descriptio":null,"timestamp":null,"begin":null,"end":null,"altitudeMo":null,"tessellate":-1,"extrude":0,"visibility":-1,"drawOrder":null,"icon":null},"geometry":{"type":"Point","coordinates":[79.8419673,7.2460182,0.0]}},
{"type":"Feature","properties":{"id":null,"Name":"Island Scuba - Scuba Diving In Sri Lanka","descriptio":null,"timestamp":null,"begin":null,"end":null,"altitudeMo":null,"tessellate":-1,"extrude":0,"visibility":-1,"drawOrder":null,"icon":null},"geometry":{"type":"Point","coordinates":[79.8609746,6.854249,0.0]}},
{"type":"Feature","properties":{"id":null,"Name":"Scuba Ceylon Diving Center in Colombo","descriptio":null,"timestamp":null,"begin":null,"end":null,"altitudeMo":null,"tessellate":-1,"extrude":0,"visibility":-1,"drawOrder":null,"icon":null},"geometry":{"type":"Point","coordinates":[79.8612077,6.8546347,0.0]}},
{"type":"Feature","properties":{"id":null,"Name":"Colombo Scuba Diving","descriptio":null,"timestamp":null,"begin":null,"end":null,"altitudeMo":null,"tessellate":-1,"extrude":0,"visibility":-1,"drawOrder":null,"icon":null},"geometry":{"type":"Point","coordinates":[79.903493,6.7146595,0.0]}}
]
}
