{
"type": "FeatureCollection",
"name": "heritage_sites",
"crs": { "type": "name", "properties": { "name": "urn:ogc:def:crs:OGC:1.3:CRS84" } },
"features": [
{"type":"Feature","properties":{"id":null,"Name":"Gangaramaya Temple Colombo","descriptio":null,"timestamp":null,"begin":null,"end":null,"altitudeMo":null,"tessellate":-1,"extrude":0,"visibility":-1,"drawOrder":null,"icon":null},"geometry":{"type":"Point","coordinates":[79.8566456,6.9167145,0.0]}},
{"type":"Feature","properties":{"id":null,"Name":"Manelwatta Temple","descriptio":null,"timestamp":null,"begin":null,"end":null,"altitudeMo":null,"tessellate":-1,"extrude":0,"visibility":-1,"drawOrder":null,"icon":null},"geometry":{"type":"Point","coordinates":[79.9513614,6.9449211,0.0]}},
{"type":"Feature","properties":{"id":null,"Name":"Kelaniya Raja Maha Viharaya","descriptio":null,"timestamp":null,"begin":null,"end":null,"altitudeMo":null,"tessellate":-1,"extrude":0,"visibility":-1,"drawOrder":null,"icon":null},"geometry":{"type":"Point","coordinates":[79.9184698,6.951826,0.0]}},
{"type":"Feature","properties":{"id":null,"Name":"Independence Square","descriptio":null,"timestamp":null,"begin":null,"end":null,"altitudeMo":null,"tessellate":-1,"extrude":0,"visibility":-1,"drawOrder":null,"icon":null},"geometry":{"type":"Point","coordinates":[79.8675756,6.904162,0.0]}},
{"type":"Feature","properties":{"id":null,"Name":"Kalutara Bodhiya","descriptio":null,"timestamp":null,"begin":null,"end":null,"altitudeMo":null,"tessellate":-1,"extrude":0,"visibility":-1,"drawOrder":null,"icon":null},"geometry":{"type":"Point","coordinates":[79.9595469,6.5872125,0.0]}},
{"type":"Feature","properties":{"id":null,"Name":"Jami Ul-Alfar Mosque","descriptio":null,"timestamp":null,"begin":null,"end":null,"altitudeMo":null,"tessellate":-1,"extrude":0,"visibility":-1,"drawOrder":null,"icon":null},"geometry":{"type":"Point","coordinates":[79.8517976,6.9384092,0.0]}},
{"type":"Feature","properties":{"id":null,"Name":"Dutch Hospital Shopping Precinct","descriptio":null,"timestamp":null,"begin":null,"end":null,"altitudeMo":null,"tessellate":-1,"extrude":0,"visibility":-1,"drawOrder":null,"icon":null},"geometry":{"type":"Point","coordinates":[79.8435129,6.9335201,0.0]}},
{"type":"Feature","properties":{"id":null,"Name":"Christian Reformed Church of Sri Lanka","descriptio":null,"timestamp":null,"begin":null,"end":null,"altitudeMo":null,"tessellate":-1,"extrude":0,"visibility":-1,"drawOrder":null,"icon":null},"geometry":{"type":"Point","coordinates":[79.859072,6.9420848,0.0]}},
{"type":"Feature","properties":{"id":null,"Name":"Kayman's Gate Bell Tower","descriptio":null,"timestamp":null,"begin":null,"end":null,"altitudeMo":null,"tessellate":-1,"extrude":0,"visibility":-1,"drawOrder":null,"icon":null},"geometry":{"type":"Point","coordinates":[79.8531721,6.9385726,0.0]}},
{"type":"Feature","properties":{"id":null,"Name":"Nawagamuwa Paththini Temple","descriptio":null,"timestamp":null,"begin":null,"end":null,"altitudeMo":null,"tessellate":-1,"extrude":0,"visibility":-1,"drawOrder":null,"icon":null},"geometry":{"type":"Point","coordinates":[80.0175598,6.9240186,0.0]}},
{"type":"Feature","properties":{"id":null,"Name":"Pilikuttuwa Raja Maha Viharaya, Yakkala.","descriptio":null,"timestamp":null,"begin":null,"end":null,"altitudeMo":null,"tessellate":-1,"extrude":0,"visibility":-1,"drawOrder":null,"icon":null},"geometry":{"type":"Point","coordinates":[80.0503489,7.0638597,0.0]}},
{"type":"Feature","properties":{"id":null,"Name":"Maligathanna Raja Maha Viharaya","descriptio":null,"timestamp":null,"begin":null,"end":null,"altitudeMo":null,"tessellate":-1,"extrude":0,"visibility":-1,"drawOrder":null,"icon":null},"geometry":{"type":"Point","coordinates":[80.0646967,7.0649267,0.0]}},
{"type":"Feature","properties":{"id":null,"Name":"Vaarana Rajamaha Viharaya","descriptio":null,"timestamp":null,"begin":null,"end":null,"altitudeMo":null,"tessellate":-1,"extrude":0,"visibility":-1,"drawOrder":null,"icon":null},"geometry":{"type":"Point","coordinates":[80.0743769,7.1023037,0.0]}},
{"type":"Feature","properties":{"id":null,"Name":"Asgiriya Raja Maha Viharaya (???????? ?? ??? ??????) Gampaha.","descriptio":null,"timestamp":null,"begin":null,"end":null,"altitudeMo":null,"tessellate":-1,"extrude":0,"visibility":-1,"drawOrder":null,"icon":null},"geometry":{"type":"Point","coordinates":[79.9899024,7.1100155,0.0]}},
{"type":"Feature","properties":{"id":null,"Name":"Attanagalla Raja Maha Viharaya","descriptio":null,"timestamp":null,"begin":null,"end":null,"altitudeMo":null,"tessellate":-1,"extrude":0,"visibility":-1,"drawOrder":null,"icon":null},"geometry":{"type":"Point","coordinates":[80.1355005,7.1137427,0.0]}},
{"type":"Feature","properties":{"id":null,"Name":"Alawala Caves Prehistoric Archaeological Site","descriptio":null,"timestamp":null,"begin":null,"end":null,"altitudeMo":null,"tessellate":-1,"extrude":0,"visibility":-1,"drawOrder":null,"icon":null},"geometry":{"type":"Point","coordinates":[80.1925349,7.1311264,0.0]}},
{"type":"Feature","properties":{"id":null,"Name":"Negombo Dutch Fort","descriptio":null,"timestamp":null,"begin":null,"end":null,"altitudeMo":null,"tessellate":-1,"extrude":0,"visibility":-1,"drawOrder":null,"icon":null},"geometry":{"type":"Point","coordinates":[79.8317292,7.208615,0.0]}},
{"type":"Feature","properties":{"id":null,"Name":"St. Mary's Church - Grand Street","descriptio":null,"timestamp":null,"begin":null,"end":null,"altitudeMo":null,"tessellate":-1,"extrude":0,"visibility":-1,"drawOrder":null,"icon":null},"geometry":{"type":"Point","coordinates":[79.8372703,7.2102862,0.0]}},
{"type":"Feature","properties":{"id":null,"Name":"Fa-hienlena Prehistoric Cave","descriptio":null,"timestamp":null,"begin":null,"end":null,"altitudeMo":null,"tessellate":-1,"extrude":0,"visibility":-1,"drawOrder":null,"icon":null},"geometry":{"type":"Point","coordinates":[80.216364,6.6489052,0.0]}},
{"type":"Feature","properties":{"id":null,"Name":"Richmond Castle","descriptio":null,"timestamp":null,"begin":null,"end":null,"altitudeMo":null,"tessellate":-1,"extrude":0,"visibility":-1,"drawOrder":null,"icon":null},"geometry":{"type":"Point","coordinates":[79.975219,6.6015823,0.0]}},
{"type":"Feature","properties":{"id":null,"Name":"Lenawara Ancient Royal Temple - Haltota","descriptio":null,"timestamp":null,"begin":null,"end":null,"altitudeMo":null,"tessellate":-1,"extrude":0,"visibility":-1,"drawOrder":null,"icon":null},"geometry":{"type":"Point","coordinates":[80.0305636,6.6960202,0.0]}},
{"type":"Feature","properties":{"id":null,"Name":"Warakagoda Gallena Rajamaha Viharaya","descriptio":null,"timestamp":null,"begin":null,"end":null,"altitudeMo":null,"tessellate":-1,"extrude":0,"visibility":-1,"drawOrder":null,"icon":null},"geometry":{"type":"Point","coordinates":[80.1081353,6.6247486,0.0]}},
{"type":"Feature","properties":{"id":null,"Name":"Gangathilaka Purana Viharaya","descriptio":null,"timestamp":null,"begin":null,"end":null,"altitudeMo":null,"tessellate":-1,"extrude":0,"visibility":-1,"drawOrder":null,"icon":null},"geometry":{"type":"Point","coordinates":[80.0442377,6.5930228,0.0]}},
{"type":"Feature","properties":{"id":null,"Name":"Kande Vihara Temple - Aluthgama","descriptio":null,"timestamp":null,"begin":null,"end":null,"altitudeMo":null,"tessellate":-1,"extrude":0,"visibility":-1,"drawOrder":null,"icon":null},"geometry":{"type":"Point","coordinates":[80.0007962,6.4492963,0.0]}},
{"type":"Feature","properties":{"id":null,"Name":"Brief Garden, by Bevis Bawa","descriptio":null,"timestamp":null,"begin":null,"end":null,"altitudeMo":null,"tessellate":-1,"extrude":0,"visibility":-1,"drawOrder":null,"icon":null},"geometry":{"type":"Point","coordinates":[80.037736,6.45702,0.0]}}
]
}
