{
"type": "FeatureCollection",
"name": "other_attractions",
"crs": { "type": "name", "properties": { "name": "urn:ogc:def:crs:OGC:1.3:CRS84" } },
"features": [
{"type":"Feature","properties":{"osm_id":"617764936","code":2202,"fclass":"nightclub","name":"The Lounge Seven Eleven"},"geometry":{"type":"Point","coordinates":[79.9340505,6.8747769]}},
{"type":"Feature","properties":{"osm_id":"618491025","code":2723,"fclass":"monument","name":"Ananda College"},"geometry":{"type":"Point","coordinates":[79.8685501,6.9243358]}},
{"type":"Feature","properties":{"osm_id":"620382353","code":2723,"fclass":"monument","name":"Independence Square"},"geometry":{"type":"Point","coordinates":[79.8675663,6.9046368]}},
{"type":"Feature","properties":{"osm_id":"658718685","code":2304,"fclass":"pub","name":"Wathupitiwala Wine Stores"},"geometry":{"type":"Point","coordinates":[80.1018563,7.1361749]}},
{"type":"Feature","properties":{"osm_id":"1128188500","code":2724,"fclass":"memorial","name":"Dr. N. M. Perera"},"geometry":{"type":"Point","coordinates":[79.8881818,6.910632]}},
{"type":"Feature","properties":{"osm_id":"1134621894","code":2955,"fclass":"lighthouse","name":null},"geometry":{"type":"Point","coordinates":[79.8446446,6.9558998]}},
{"type":"Feature","properties":{"osm_id":"1249816171","code":2304,"fclass":"pub","name":"Lion Pub"},"geometry":{"type":"Point","coordinates":[79.8668393,6.8416438]}},
{"type":"Feature","properties":{"osm_id":"1252555411","code":2304,"fclass":"pub","name":"Royal Colombo Yatch Club"},"geometry":{"type":"Point","coordinates":[79.9022339,6.7738867]}},
{"type":"Feature","properties":{"osm_id":"1316824020","code":2724,"fclass":"memorial","name":"War Memorial"},"geometry":{"type":"Point","coordinates":[79.8614941,6.9050934]}},
{"type":"Feature","properties":{"osm_id":"1434108416","code":2304,"fclass":"pub","name":"Mintage"},"geometry":{"type":"Point","coordinates":[79.8765832,6.9096969]}},
{"type":"Feature","properties":{"osm_id":"1523650695","code":2725,"fclass":"artwork","name":null},"geometry":{"type":"Point","coordinates":[79.8628972,6.9147479]}},
{"type":"Feature","properties":{"osm_id":"1650222147","code":2304,"fclass":"pub","name":"Sun Rest"},"geometry":{"type":"Point","coordinates":[79.9156684,6.8527487]}},
{"type":"Feature","properties":{"osm_id":"1650248536","code":2950,"fclass":"tower","name":"ACCIMT"},"geometry":{"type":"Point","coordinates":[79.9004823,6.79485]}},
{"type":"Feature","properties":{"osm_id":"1655634066","code":2304,"fclass":"pub","name":"Star Dust"},"geometry":{"type":"Point","coordinates":[79.8503231,6.9066868]}},
{"type":"Feature","properties":{"osm_id":"1661840272","code":2721,"fclass":"attraction","name":"Temple Wele pansala"},"geometry":{"type":"Point","coordinates":[79.9946203,6.4463338]}},
{"type":"Feature","properties":{"osm_id":"1684193285","code":2724,"fclass":"memorial","name":"Kohuwala Cemetery"},"geometry":{"type":"Point","coordinates":[79.8832731,6.8665943]}},
{"type":"Feature","properties":{"osm_id":"1733767869","code":2731,"fclass":"castle","name":"Bothale Walawwa"},"geometry":{"type":"Point","coordinates":[80.1646273,7.2480909]}},
{"type":"Feature","properties":{"osm_id":"1814511531","code":2304,"fclass":"pub","name":"Bellagio Cassino"},"geometry":{"type":"Point","coordinates":[79.8536861,6.9049522]}},
{"type":"Feature","properties":{"osm_id":"1839459793","code":2950,"fclass":"tower","name":"Access Tower"},"geometry":{"type":"Point","coordinates":[79.8575332,6.920334]}},
{"type":"Feature","properties":{"osm_id":"1901979020","code":2950,"fclass":"tower","name":"Kandana Water Tower"},"geometry":{"type":"Point","coordinates":[79.9060684,7.03887]}},
{"type":"Feature","properties":{"osm_id":"2045847022","code":2304,"fclass":"pub","name":"Casamara"},"geometry":{"type":"Point","coordinates":[79.96225,6.8420989]}},
{"type":"Feature","properties":{"osm_id":"2045863190","code":2304,"fclass":"pub","name":"Casablanca"},"geometry":{"type":"Point","coordinates":[79.9620363,6.842263]}},
{"type":"Feature","properties":{"osm_id":"2085401649","code":2725,"fclass":"artwork","name":"Bevis Bawa Gardens \"Brief Garden\""},"geometry":{"type":"Point","coordinates":[80.0375895,6.4571463]}},
{"type":"Feature","properties":{"osm_id":"2097616840","code":2304,"fclass":"pub","name":"Machan"},"geometry":{"type":"Point","coordinates":[79.9047237,6.9098902]}},
{"type":"Feature","properties":{"osm_id":"2124737401","code":2304,"fclass":"pub","name":null},"geometry":{"type":"Point","coordinates":[79.9246089,6.8958644]}},
{"type":"Feature","properties":{"osm_id":"2124745931","code":2950,"fclass":"tower","name":"MBC"},"geometry":{"type":"Point","coordinates":[79.9419791,6.8563655]}},
{"type":"Feature","properties":{"osm_id":"2133268889","code":2950,"fclass":"tower","name":"ITN"},"geometry":{"type":"Point","coordinates":[79.9418001,6.8840773]}},
{"type":"Feature","properties":{"osm_id":"2141657994","code":2721,"fclass":"attraction","name":"Thummodara Ranmudu Ella"},"geometry":{"type":"Point","coordinates":[80.1708905,6.8647276]}},
{"type":"Feature","properties":{"osm_id":"2141663842","code":2721,"fclass":"attraction","name":"Ella Uda Ella"},"geometry":{"type":"Point","coordinates":[80.1766836,6.8899887]}},
{"type":"Feature","properties":{"osm_id":"2143491527","code":2724,"fclass":"memorial","name":"Rukmani Devi Statue"},"geometry":{"type":"Point","coordinates":[79.8905245,7.086732]}},
{"type":"Feature","properties":{"osm_id":"2213043745","code":2721,"fclass":"attraction","name":"Thudugala Ella"},"geometry":{"type":"Point","coordinates":[80.0584269,6.570697]}},
{"type":"Feature","properties":{"osm_id":"2411945467","code":2723,"fclass":"monument","name":"Tsunami monument"},"geometry":{"type":"Point","coordinates":[79.9827863,6.4774738]}},
{"type":"Feature","properties":{"osm_id":"2624302580","code":2724,"fclass":"memorial","name":"Memorial Catalina"},"geometry":{"type":"Point","coordinates":[79.8836228,6.8190206]}},
{"type":"Feature","properties":{"osm_id":"2800750019","code":2950,"fclass":"tower","name":null},"geometry":{"type":"Point","coordinates":[80.0646686,7.065278]}},
{"type":"Feature","properties":{"osm_id":"2800750217","code":2950,"fclass":"tower","name":null},"geometry":{"type":"Point","coordinates":[80.0638654,7.0678823]}},
{"type":"Feature","properties":{"osm_id":"3105138529","code":2741,"fclass":"picnic_site","name":null},"geometry":{"type":"Point","coordinates":[79.9095373,6.904691]}},
{"type":"Feature","properties":{"osm_id":"3139577055","code":2304,"fclass":"pub","name":"Peacock Pub & Sea Food"},"geometry":{"type":"Point","coordinates":[79.840978,7.2264864]}},
{"type":"Feature","properties":{"osm_id":"3141877723","code":2741,"fclass":"picnic_site","name":null},"geometry":{"type":"Point","coordinates":[79.9104983,6.9063338]}},
{"type":"Feature","properties":{"osm_id":"3163979473","code":2950,"fclass":"tower","name":"Khan Clock Tower"},"geometry":{"type":"Point","coordinates":[79.8492646,6.937109]}},
{"type":"Feature","properties":{"osm_id":"3166472637","code":2950,"fclass":"tower","name":null},"geometry":{"type":"Point","coordinates":[79.8631866,6.9186013]}},
{"type":"Feature","properties":{"osm_id":"3166476976","code":2950,"fclass":"tower","name":null},"geometry":{"type":"Point","coordinates":[79.8626877,6.9187236]}},
{"type":"Feature","properties":{"osm_id":"3199593279","code":2950,"fclass":"tower","name":null},"geometry":{"type":"Point","coordinates":[79.9102781,7.1013191]}},
{"type":"Feature","properties":{"osm_id":"3355424938","code":2950,"fclass":"tower","name":"Old Colombo Lighthouse"},"geometry":{"type":"Point","coordinates":[79.842799,6.9347281]}},
{"type":"Feature","properties":{"osm_id":"3365506089","code":2955,"fclass":"lighthouse","name":null},"geometry":{"type":"Point","coordinates":[79.8309252,6.9656508]}},
{"type":"Feature","properties":{"osm_id":"3365507883","code":2955,"fclass":"lighthouse","name":null},"geometry":{"type":"Point","coordinates":[79.8391874,6.9600748]}},
{"type":"Feature","properties":{"osm_id":"3431856751","code":2723,"fclass":"monument","name":"Highway Entrance Monument"},"geometry":{"type":"Point","coordinates":[79.8830593,6.9558728]}},
{"type":"Feature","properties":{"osm_id":"3516467775","code":2723,"fclass":"monument","name":"Srimath Anagarika Dharmapala Statue"},"geometry":{"type":"Point","coordinates":[79.8935704,6.9105256]}},
{"type":"Feature","properties":{"osm_id":"3516468007","code":2723,"fclass":"monument","name":"Veediye Bandara Statue"},"geometry":{"type":"Point","coordinates":[79.8959575,6.9093858]}},
{"type":"Feature","properties":{"osm_id":"3555232058","code":2950,"fclass":"tower","name":"Townhall Clock Tower"},"geometry":{"type":"Point","coordinates":[79.8647912,6.9169659]}},
{"type":"Feature","properties":{"osm_id":"3578062111","code":2721,"fclass":"attraction","name":"Makeliya Water Fall"},"geometry":{"type":"Point","coordinates":[80.2816914,6.6057951]}},
{"type":"Feature","properties":{"osm_id":"3616075854","code":2950,"fclass":"tower","name":"Clock Tower"},"geometry":{"type":"Point","coordinates":[80.1779723,6.6495926]}},
{"type":"Feature","properties":{"osm_id":"3741001953","code":2950,"fclass":"tower","name":"Telecom Tower"},"geometry":{"type":"Point","coordinates":[80.1430166,7.2685051]}},
{"type":"Feature","properties":{"osm_id":"3741004125","code":2950,"fclass":"tower","name":"Telecom Tower"},"geometry":{"type":"Point","coordinates":[80.1418485,7.268259]}},
{"type":"Feature","properties":{"osm_id":"3741005225","code":2950,"fclass":"tower","name":"Telecom Tower"},"geometry":{"type":"Point","coordinates":[80.1432285,7.268557]}},
{"type":"Feature","properties":{"osm_id":"3742215663","code":2202,"fclass":"nightclub","name":"Kudos"},"geometry":{"type":"Point","coordinates":[79.8641321,6.8884807]}},
{"type":"Feature","properties":{"osm_id":"3800335694","code":2950,"fclass":"tower","name":null},"geometry":{"type":"Point","coordinates":[79.9572535,7.1933645]}},
{"type":"Feature","properties":{"osm_id":"3825169557","code":2724,"fclass":"memorial","name":"Sri Lanka Telecom Monument"},"geometry":{"type":"Point","coordinates":[79.8469786,6.9340576]}},
{"type":"Feature","properties":{"osm_id":"3887309616","code":2950,"fclass":"tower","name":null},"geometry":{"type":"Point","coordinates":[80.002801,7.0893463]}},
{"type":"Feature","properties":{"osm_id":"3894509891","code":2950,"fclass":"tower","name":"Telecom tower"},"geometry":{"type":"Point","coordinates":[79.9861802,7.227367]}},
{"type":"Feature","properties":{"osm_id":"3905867047","code":2950,"fclass":"tower","name":null},"geometry":{"type":"Point","coordinates":[79.9674609,7.039414]}},
{"type":"Feature","properties":{"osm_id":"3919762840","code":2950,"fclass":"tower","name":null},"geometry":{"type":"Point","coordinates":[79.9430581,7.0683463]}},
{"type":"Feature","properties":{"osm_id":"3922519072","code":2723,"fclass":"monument","name":"Horse made out of vehicle parts"},"geometry":{"type":"Point","coordinates":[79.8659923,6.9343887]}},
{"type":"Feature","properties":{"osm_id":"3940951685","code":2950,"fclass":"tower","name":null},"geometry":{"type":"Point","coordinates":[79.9448291,7.095966]}},
{"type":"Feature","properties":{"osm_id":"3940951993","code":2950,"fclass":"tower","name":"Diolog Tower"},"geometry":{"type":"Point","coordinates":[79.9402068,7.1048892]}},
{"type":"Feature","properties":{"osm_id":"3954241596","code":2950,"fclass":"tower","name":null},"geometry":{"type":"Point","coordinates":[79.863922,6.9627189]}},
{"type":"Feature","properties":{"osm_id":"3954289045","code":2950,"fclass":"tower","name":null},"geometry":{"type":"Point","coordinates":[79.866353,6.9653141]}},
{"type":"Feature","properties":{"osm_id":"3957632559","code":2950,"fclass":"tower","name":null},"geometry":{"type":"Point","coordinates":[79.9478923,7.081647]}},
{"type":"Feature","properties":{"osm_id":"3957666295","code":2950,"fclass":"tower","name":null},"geometry":{"type":"Point","coordinates":[79.9462232,7.0830729]}},
{"type":"Feature","properties":{"osm_id":"3957687972","code":2950,"fclass":"tower","name":null},"geometry":{"type":"Point","coordinates":[79.9501349,7.0999309]}},
{"type":"Feature","properties":{"osm_id":"3960806085","code":2950,"fclass":"tower","name":"Telecom Tower"},"geometry":{"type":"Point","coordinates":[80.0494904,6.8461884]}},
{"type":"Feature","properties":{"osm_id":"4019065626","code":2950,"fclass":"tower","name":null},"geometry":{"type":"Point","coordinates":[79.9299978,6.8497472]}},
{"type":"Feature","properties":{"osm_id":"4030921205","code":2950,"fclass":"tower","name":null},"geometry":{"type":"Point","coordinates":[79.9939319,7.0388897]}},
{"type":"Feature","properties":{"osm_id":"4032624878","code":2950,"fclass":"tower","name":null},"geometry":{"type":"Point","coordinates":[79.8942464,6.8823369]}},
{"type":"Feature","properties":{"osm_id":"4039522510","code":2950,"fclass":"tower","name":null},"geometry":{"type":"Point","coordinates":[79.9399831,7.0645825]}},
{"type":"Feature","properties":{"osm_id":"4059894429","code":2950,"fclass":"tower","name":"SLT Signal Tower"},"geometry":{"type":"Point","coordinates":[80.0273447,6.864762]}},
{"type":"Feature","properties":{"osm_id":"4074569950","code":2725,"fclass":"artwork","name":"Sebestian Statue"},"geometry":{"type":"Point","coordinates":[79.8877034,7.0889049]}},
{"type":"Feature","properties":{"osm_id":"4076265198","code":2950,"fclass":"tower","name":null},"geometry":{"type":"Point","coordinates":[79.8783041,7.1062131]}},
{"type":"Feature","properties":{"osm_id":"4076265310","code":2950,"fclass":"tower","name":null},"geometry":{"type":"Point","coordinates":[79.8812424,7.1087787]}},
{"type":"Feature","properties":{"osm_id":"4082303642","code":2950,"fclass":"tower","name":"communication Tower"},"geometry":{"type":"Point","coordinates":[79.9906912,7.0743714]}},
{"type":"Feature","properties":{"osm_id":"4082703585","code":2950,"fclass":"tower","name":null},"geometry":{"type":"Point","coordinates":[79.8902336,7.0857886]}},
{"type":"Feature","properties":{"osm_id":"4084666279","code":2304,"fclass":"pub","name":"Madushi vine shop"},"geometry":{"type":"Point","coordinates":[79.8841363,7.1041066]}},
{"type":"Feature","properties":{"osm_id":"4085929738","code":2723,"fclass":"monument","name":"Buddha Statue"},"geometry":{"type":"Point","coordinates":[79.9175114,7.0696719]}},
{"type":"Feature","properties":{"osm_id":"4087504760","code":2950,"fclass":"tower","name":null},"geometry":{"type":"Point","coordinates":[79.8968737,7.0941706]}},
{"type":"Feature","properties":{"osm_id":"4087798856","code":2950,"fclass":"tower","name":null},"geometry":{"type":"Point","coordinates":[79.8811246,7.0594182]}},
{"type":"Feature","properties":{"osm_id":"4087936840","code":2723,"fclass":"monument","name":"Navy War Heros Monument"},"geometry":{"type":"Point","coordinates":[79.89985,7.0189474]}},
{"type":"Feature","properties":{"osm_id":"4148240216","code":2723,"fclass":"monument","name":"Buddha Statue"},"geometry":{"type":"Point","coordinates":[80.0116014,7.0883159]}},
{"type":"Feature","properties":{"osm_id":"4162589328","code":2950,"fclass":"tower","name":"Mobitel Power Station"},"geometry":{"type":"Point","coordinates":[80.010084,7.0874848]}},
{"type":"Feature","properties":{"osm_id":"4162677279","code":2724,"fclass":"memorial","name":"Samarakkodi Aramaya pagoda"},"geometry":{"type":"Point","coordinates":[80.0116353,7.0897394]}},
{"type":"Feature","properties":{"osm_id":"4168517858","code":2950,"fclass":"tower","name":"Telecom Tower"},"geometry":{"type":"Point","coordinates":[80.0131228,7.081224]}},
{"type":"Feature","properties":{"osm_id":"4173835349","code":2725,"fclass":"artwork","name":null},"geometry":{"type":"Point","coordinates":[79.9910994,7.0360318]}},
{"type":"Feature","properties":{"osm_id":"4199301961","code":2950,"fclass":"tower","name":null},"geometry":{"type":"Point","coordinates":[80.0147844,6.9778561]}},
{"type":"Feature","properties":{"osm_id":"4209199529","code":2950,"fclass":"tower","name":null},"geometry":{"type":"Point","coordinates":[79.9557616,6.9136491]}},
{"type":"Feature","properties":{"osm_id":"4209734706","code":2950,"fclass":"tower","name":null},"geometry":{"type":"Point","coordinates":[80.0871833,6.9440062]}},
{"type":"Feature","properties":{"osm_id":"4210424142","code":2950,"fclass":"tower","name":null},"geometry":{"type":"Point","coordinates":[79.9741879,7.1415965]}},
{"type":"Feature","properties":{"osm_id":"4213240685","code":2950,"fclass":"tower","name":null},"geometry":{"type":"Point","coordinates":[79.8806792,6.9202859]}},
{"type":"Feature","properties":{"osm_id":"4213244592","code":2950,"fclass":"tower","name":null},"geometry":{"type":"Point","coordinates":[79.8816973,6.922118]}},
{"type":"Feature","properties":{"osm_id":"4218301998","code":2950,"fclass":"tower","name":null},"geometry":{"type":"Point","coordinates":[80.0063786,7.1448727]}},
{"type":"Feature","properties":{"osm_id":"4218906927","code":2950,"fclass":"tower","name":"High tention"},"geometry":{"type":"Point","coordinates":[79.9124188,7.1244812]}},
{"type":"Feature","properties":{"osm_id":"4223583684","code":2950,"fclass":"tower","name":"Water Tank"},"geometry":{"type":"Point","coordinates":[79.9167694,7.1176543]}},
{"type":"Feature","properties":{"osm_id":"4227929964","code":2950,"fclass":"tower","name":"Tower"},"geometry":{"type":"Point","coordinates":[79.8999197,7.13261]}},
{"type":"Feature","properties":{"osm_id":"4235152621","code":2950,"fclass":"tower","name":"Supawath Arana Romanu Catholic"},"geometry":{"type":"Point","coordinates":[79.885602,7.1326505]}},
{"type":"Feature","properties":{"osm_id":"4236745944","code":2950,"fclass":"tower","name":null},"geometry":{"type":"Point","coordinates":[79.9579181,7.1224321]}},
{"type":"Feature","properties":{"osm_id":"4241593428","code":2950,"fclass":"tower","name":null},"geometry":{"type":"Point","coordinates":[80.002961,7.1414397]}},
{"type":"Feature","properties":{"osm_id":"4267537638","code":2724,"fclass":"memorial","name":null},"geometry":{"type":"Point","coordinates":[79.8981236,7.1319627]}},
{"type":"Feature","properties":{"osm_id":"4272686480","code":2950,"fclass":"tower","name":null},"geometry":{"type":"Point","coordinates":[79.9310319,7.0851531]}},
{"type":"Feature","properties":{"osm_id":"4272686488","code":2950,"fclass":"tower","name":null},"geometry":{"type":"Point","coordinates":[79.9304699,7.0686343]}},
{"type":"Feature","properties":{"osm_id":"4299760120","code":2725,"fclass":"artwork","name":null},"geometry":{"type":"Point","coordinates":[79.9918308,7.098475]}},
{"type":"Feature","properties":{"osm_id":"4301056112","code":2950,"fclass":"tower","name":null},"geometry":{"type":"Point","coordinates":[79.9360165,7.1360139]}},
{"type":"Feature","properties":{"osm_id":"4304782810","code":2721,"fclass":"attraction","name":"St. Lucia Church"},"geometry":{"type":"Point","coordinates":[79.8645241,6.9481148]}},
{"type":"Feature","properties":{"osm_id":"4324752430","code":2724,"fclass":"memorial","name":"Buddha Statue"},"geometry":{"type":"Point","coordinates":[80.0045779,7.1187047]}},
{"type":"Feature","properties":{"osm_id":"4331975602","code":2725,"fclass":"artwork","name":null},"geometry":{"type":"Point","coordinates":[79.9142539,7.1610944]}},
{"type":"Feature","properties":{"osm_id":"4338760656","code":2304,"fclass":"pub","name":"Stallion Pub"},"geometry":{"type":"Point","coordinates":[79.8450855,6.9374881]}},
{"type":"Feature","properties":{"osm_id":"4350574691","code":2744,"fclass":"theme_park","name":"Water World Lanka"},"geometry":{"type":"Point","coordinates":[79.9423218,6.9446162]}},
{"type":"Feature","properties":{"osm_id":"4350776194","code":2723,"fclass":"monument","name":"Statue of lord buddha"},"geometry":{"type":"Point","coordinates":[80.093311,7.0704454]}},
{"type":"Feature","properties":{"osm_id":"4350790402","code":2304,"fclass":"pub","name":"Udumbara caters"},"geometry":{"type":"Point","coordinates":[80.0469041,7.0760382]}},
{"type":"Feature","properties":{"osm_id":"4359871582","code":2950,"fclass":"tower","name":null},"geometry":{"type":"Point","coordinates":[79.9808733,7.1659943]}},
{"type":"Feature","properties":{"osm_id":"4432503298","code":2723,"fclass":"monument","name":null},"geometry":{"type":"Point","coordinates":[79.9480533,7.1690662]}},
{"type":"Feature","properties":{"osm_id":"4435643092","code":2723,"fclass":"monument","name":null},"geometry":{"type":"Point","coordinates":[80.0923627,7.0337946]}},
{"type":"Feature","properties":{"osm_id":"4440479190","code":2723,"fclass":"monument","name":null},"geometry":{"type":"Point","coordinates":[80.1367018,7.1141215]}},
{"type":"Feature","properties":{"osm_id":"4440485990","code":2721,"fclass":"attraction","name":null},"geometry":{"type":"Point","coordinates":[79.9462551,6.9776945]}},
{"type":"Feature","properties":{"osm_id":"4443846598","code":2950,"fclass":"tower","name":"Telecom Tower"},"geometry":{"type":"Point","coordinates":[79.8933922,7.0690204]}},
{"type":"Feature","properties":{"osm_id":"4522488392","code":2721,"fclass":"attraction","name":"St. John Bosco"},"geometry":{"type":"Point","coordinates":[79.845222,7.2193001]}},
{"type":"Feature","properties":{"osm_id":"4591969390","code":2304,"fclass":"pub","name":null},"geometry":{"type":"Point","coordinates":[79.8417386,7.2399931]}},
{"type":"Feature","properties":{"osm_id":"4732044624","code":2721,"fclass":"attraction","name":null},"geometry":{"type":"Point","coordinates":[79.9219593,6.7543681]}},
{"type":"Feature","properties":{"osm_id":"4988237849","code":2724,"fclass":"memorial","name":"C.W.W.Kannangara Memorial Statue"},"geometry":{"type":"Point","coordinates":[80.0979448,6.4037375]}},
{"type":"Feature","properties":{"osm_id":"5034156049","code":2950,"fclass":"tower","name":null},"geometry":{"type":"Point","coordinates":[79.8774075,6.927661]}},
{"type":"Feature","properties":{"osm_id":"5052550121","code":2723,"fclass":"monument","name":null},"geometry":{"type":"Point","coordinates":[80.0949664,7.1421294]}},
{"type":"Feature","properties":{"osm_id":"5093837323","code":2725,"fclass":"artwork","name":"janakala kendraya"},"geometry":{"type":"Point","coordinates":[79.9213399,6.890931]}},
{"type":"Feature","properties":{"osm_id":"5102778721","code":2721,"fclass":"attraction","name":null},"geometry":{"type":"Point","coordinates":[79.8557992,6.915605]}},
{"type":"Feature","properties":{"osm_id":"5165488723","code":2304,"fclass":"pub","name":null},"geometry":{"type":"Point","coordinates":[79.9751094,6.9211588]}},
{"type":"Feature","properties":{"osm_id":"5224214316","code":2950,"fclass":"tower","name":"Communication Tower"},"geometry":{"type":"Point","coordinates":[80.1735757,6.6431773]}},
{"type":"Feature","properties":{"osm_id":"5230868422","code":2721,"fclass":"attraction","name":null},"geometry":{"type":"Point","coordinates":[80.1208812,7.2329372]}},
{"type":"Feature","properties":{"osm_id":"5242147923","code":2723,"fclass":"monument","name":null},"geometry":{"type":"Point","coordinates":[79.8774256,6.9132399]}},
{"type":"Feature","properties":{"osm_id":"5317654427","code":2721,"fclass":"attraction","name":null},"geometry":{"type":"Point","coordinates":[79.8640115,6.8285224]}},
{"type":"Feature","properties":{"osm_id":"5325160023","code":2721,"fclass":"attraction","name":null},"geometry":{"type":"Point","coordinates":[80.068108,7.0789421]}},
{"type":"Feature","properties":{"osm_id":"5352121421","code":2422,"fclass":"camp_site","name":null},"geometry":{"type":"Point","coordinates":[80.0156058,6.7788476]}},
{"type":"Feature","properties":{"osm_id":"5405020667","code":2950,"fclass":"tower","name":"Telecom Tower"},"geometry":{"type":"Point","coordinates":[80.17247,6.6304623]}},
{"type":"Feature","properties":{"osm_id":"5430777321","code":2304,"fclass":"pub","name":null},"geometry":{"type":"Point","coordinates":[79.9830362,6.447815]}},
{"type":"Feature","properties":{"osm_id":"5485934622","code":2743,"fclass":"zoo","name":"Turtle Farm"},"geometry":{"type":"Point","coordinates":[79.833261,7.138189]}},
{"type":"Feature","properties":{"osm_id":"5507198221","code":2723,"fclass":"monument","name":null},"geometry":{"type":"Point","coordinates":[80.0630472,6.7143904]}},
{"type":"Feature","properties":{"osm_id":"5517692423","code":2725,"fclass":"artwork","name":null},"geometry":{"type":"Point","coordinates":[79.883629,6.8020764]}},
{"type":"Feature","properties":{"osm_id":"5613751426","code":2424,"fclass":"caravan_site","name":null},"geometry":{"type":"Point","coordinates":[80.077248,6.6888199]}},
{"type":"Feature","properties":{"osm_id":"5679936821","code":2721,"fclass":"attraction","name":null},"geometry":{"type":"Point","coordinates":[80.2136,6.6472]}},
{"type":"Feature","properties":{"osm_id":"5716018590","code":2950,"fclass":"tower","name":null},"geometry":{"type":"Point","coordinates":[79.8989434,7.2621168]}},
{"type":"Feature","properties":{"osm_id":"5807687354","code":2304,"fclass":"pub","name":"Austasia"},"geometry":{"type":"Point","coordinates":[79.9408436,6.8751051]}},
{"type":"Feature","properties":{"osm_id":"5898406686","code":2721,"fclass":"attraction","name":null},"geometry":{"type":"Point","coordinates":[79.8827022,6.9907169]}},
{"type":"Feature","properties":{"osm_id":"5915271185","code":2721,"fclass":"attraction","name":null},"geometry":{"type":"Point","coordinates":[79.8499631,6.9362523]}},
{"type":"Feature","properties":{"osm_id":"6009340300","code":2725,"fclass":"artwork","name":null},"geometry":{"type":"Point","coordinates":[79.9234313,7.0698592]}},
{"type":"Feature","properties":{"osm_id":"6095419986","code":2304,"fclass":"pub","name":null},"geometry":{"type":"Point","coordinates":[79.8678494,6.8911387]}},
{"type":"Feature","properties":{"osm_id":"6152700385","code":2724,"fclass":"memorial","name":null},"geometry":{"type":"Point","coordinates":[79.8644419,6.9120898]}},
{"type":"Feature","properties":{"osm_id":"6192085586","code":2721,"fclass":"attraction","name":"Chatham Street Clock Tower"},"geometry":{"type":"Point","coordinates":[79.8428285,6.9347056]}},
{"type":"Feature","properties":{"osm_id":"6351639100","code":2725,"fclass":"artwork","name":null},"geometry":{"type":"Point","coordinates":[79.8540021,6.9006749]}},
{"type":"Feature","properties":{"osm_id":"6351674185","code":2721,"fclass":"attraction","name":null},"geometry":{"type":"Point","coordinates":[79.8448646,6.9360459]}},
{"type":"Feature","properties":{"osm_id":"6395430392","code":2950,"fclass":"tower","name":null},"geometry":{"type":"Point","coordinates":[79.8466169,6.9213349]}},
{"type":"Feature","properties":{"osm_id":"6461311953","code":2724,"fclass":"memorial","name":null},"geometry":{"type":"Point","coordinates":[79.9294753,6.890053]}},
{"type":"Feature","properties":{"osm_id":"6461327338","code":2724,"fclass":"memorial","name":null},"geometry":{"type":"Point","coordinates":[79.9053797,6.9051428]}},
{"type":"Feature","properties":{"osm_id":"6466232556","code":2724,"fclass":"memorial","name":null},"geometry":{"type":"Point","coordinates":[79.8862764,6.7875932]}},
{"type":"Feature","properties":{"osm_id":"6486247688","code":2721,"fclass":"attraction","name":null},"geometry":{"type":"Point","coordinates":[79.8609148,6.8542187]}},
{"type":"Feature","properties":{"osm_id":"6518088291","code":2724,"fclass":"memorial","name":null},"geometry":{"type":"Point","coordinates":[79.9292669,6.8902405]}},
{"type":"Feature","properties":{"osm_id":"6615719540","code":2202,"fclass":"nightclub","name":"Fishtail Aquatic Club"},"geometry":{"type":"Point","coordinates":[79.8617893,6.9633122]}},
{"type":"Feature","properties":{"osm_id":"6626986828","code":2422,"fclass":"camp_site","name":"Tent House"},"geometry":{"type":"Point","coordinates":[79.904577,6.8942272]}},
{"type":"Feature","properties":{"osm_id":"6728649985","code":2304,"fclass":"pub","name":null},"geometry":{"type":"Point","coordinates":[79.8503939,6.9342032]}},
{"type":"Feature","properties":{"osm_id":"6744992599","code":2724,"fclass":"memorial","name":"Sir Oliver Ernest Goonatilake"},"geometry":{"type":"Point","coordinates":[79.8813321,6.910962]}},
{"type":"Feature","properties":{"osm_id":"6763663741","code":2724,"fclass":"memorial","name":null},"geometry":{"type":"Point","coordinates":[79.8626508,6.9052903]}},
{"type":"Feature","properties":{"osm_id":"6778547782","code":2304,"fclass":"pub","name":"The Irish Bar & Grill"},"geometry":{"type":"Point","coordinates":[79.859881,6.9159865]}},
{"type":"Feature","properties":{"osm_id":"6819456362","code":2724,"fclass":"memorial","name":null},"geometry":{"type":"Point","coordinates":[79.8648763,6.9232416]}},
{"type":"Feature","properties":{"osm_id":"6874867616","code":2724,"fclass":"memorial","name":null},"geometry":{"type":"Point","coordinates":[79.8771594,6.9090781]}},
{"type":"Feature","properties":{"osm_id":"7053629809","code":2953,"fclass":"observation_tower","name":null},"geometry":{"type":"Point","coordinates":[79.9104384,6.8904363]}},
{"type":"Feature","properties":{"osm_id":"7069177271","code":2724,"fclass":"memorial","name":null},"geometry":{"type":"Point","coordinates":[79.8908803,6.8781865]}},
{"type":"Feature","properties":{"osm_id":"7091125991","code":2721,"fclass":"attraction","name":null},"geometry":{"type":"Point","coordinates":[80.1328856,7.1848795]}},
{"type":"Feature","properties":{"osm_id":"7271385751","code":2741,"fclass":"picnic_site","name":"Monsoon Adventure Park"},"geometry":{"type":"Point","coordinates":[80.2409729,6.5412824]}},
{"type":"Feature","properties":{"osm_id":"7803292565","code":2724,"fclass":"memorial","name":null},"geometry":{"type":"Point","coordinates":[80.041324,6.8211559]}},
{"type":"Feature","properties":{"osm_id":"7803292566","code":2724,"fclass":"memorial","name":null},"geometry":{"type":"Point","coordinates":[80.0412771,6.8212984]}},
{"type":"Feature","properties":{"osm_id":"7803292567","code":2725,"fclass":"artwork","name":null},"geometry":{"type":"Point","coordinates":[80.0412986,6.8212265]}},
{"type":"Feature","properties":{"osm_id":"7903785387","code":2724,"fclass":"memorial","name":null},"geometry":{"type":"Point","coordinates":[79.9273215,6.9001393]}},
{"type":"Feature","properties":{"osm_id":"7903923990","code":2724,"fclass":"memorial","name":"Maithree Bodhisattva Statue"},"geometry":{"type":"Point","coordinates":[79.9516685,6.9456999]}},
{"type":"Feature","properties":{"osm_id":"7903923991","code":2950,"fclass":"tower","name":"Ashoka Tower"},"geometry":{"type":"Point","coordinates":[79.9514497,6.945254]}},
{"type":"Feature","properties":{"osm_id":"7964893265","code":2725,"fclass":"artwork","name":null},"geometry":{"type":"Point","coordinates":[80.0419437,6.8221215]}},
{"type":"Feature","properties":{"osm_id":"8015192868","code":2724,"fclass":"memorial","name":null},"geometry":{"type":"Point","coordinates":[79.9214441,6.8917141]}},
{"type":"Feature","properties":{"osm_id":"8016433755","code":2724,"fclass":"memorial","name":null},"geometry":{"type":"Point","coordinates":[79.8645326,6.9139758]}},
{"type":"Feature","properties":{"osm_id":"8244359466","code":2724,"fclass":"memorial","name":"Amara Indika Rupasinghe Gunawardena"},"geometry":{"type":"Point","coordinates":[80.1194579,6.9326606]}},
{"type":"Feature","properties":{"osm_id":"8292429534","code":2721,"fclass":"attraction","name":"Dikkande Mansion"},"geometry":{"type":"Point","coordinates":[80.0968967,7.067806]}},
{"type":"Feature","properties":{"osm_id":"8481778111","code":2725,"fclass":"artwork","name":"Jesus and Mary"},"geometry":{"type":"Point","coordinates":[79.8887678,7.0807252]}},
{"type":"Feature","properties":{"osm_id":"8540572976","code":2724,"fclass":"memorial","name":null},"geometry":{"type":"Point","coordinates":[79.9401631,6.8877164]}},
{"type":"Feature","properties":{"osm_id":"8775424445","code":2725,"fclass":"artwork","name":null},"geometry":{"type":"Point","coordinates":[79.9065665,6.9100835]}},
{"type":"Feature","properties":{"osm_id":"8903714451","code":2724,"fclass":"memorial","name":null},"geometry":{"type":"Point","coordinates":[79.9270459,6.899897]}},
{"type":"Feature","properties":{"osm_id":"8909528688","code":2953,"fclass":"observation_tower","name":null},"geometry":{"type":"Point","coordinates":[79.9319375,6.8769199]}},
{"type":"Feature","properties":{"osm_id":"9150634346","code":2721,"fclass":"attraction","name":"Kalu Dola Ella"},"geometry":{"type":"Point","coordinates":[80.2370436,6.3745281]}},
{"type":"Feature","properties":{"osm_id":"9296207217","code":2304,"fclass":"pub","name":"Playtrix Sportsbar & Grill"},"geometry":{"type":"Point","coordinates":[79.8549319,6.9175687]}},
{"type":"Feature","properties":{"osm_id":"9348716483","code":2304,"fclass":"pub","name":"Uncle's"},"geometry":{"type":"Point","coordinates":[79.8585893,6.916562]}},
{"type":"Feature","properties":{"osm_id":"9457703602","code":2725,"fclass":"artwork","name":"R.I.T.Alles Sir"},"geometry":{"type":"Point","coordinates":[79.8750233,6.9089207]}},
{"type":"Feature","properties":{"osm_id":"9457703603","code":2725,"fclass":"artwork","name":null},"geometry":{"type":"Point","coordinates":[79.8720251,6.9092338]}},
{"type":"Feature","properties":{"osm_id":"9468323987","code":2725,"fclass":"artwork","name":null},"geometry":{"type":"Point","coordinates":[79.8424673,6.9309532]}},
{"type":"Feature","properties":{"osm_id":"9468323988","code":2725,"fclass":"artwork","name":null},"geometry":{"type":"Point","coordinates":[79.8424913,6.9310826]}},
{"type":"Feature","properties":{"osm_id":"9468323989","code":2725,"fclass":"artwork","name":null},"geometry":{"type":"Point","coordinates":[79.8425003,6.9308163]}},
{"type":"Feature","properties":{"osm_id":"9468323990","code":2725,"fclass":"artwork","name":null},"geometry":{"type":"Point","coordinates":[79.8424973,6.9307315]}},
{"type":"Feature","properties":{"osm_id":"9468323991","code":2725,"fclass":"artwork","name":null},"geometry":{"type":"Point","coordinates":[79.8426906,6.9312343]}},
{"type":"Feature","properties":{"osm_id":"9468323992","code":2725,"fclass":"artwork","name":null},"geometry":{"type":"Point","coordinates":[79.8426966,6.9311197]}},
{"type":"Feature","properties":{"osm_id":"9468323993","code":2725,"fclass":"artwork","name":null},"geometry":{"type":"Point","coordinates":[79.8426996,6.9307836]}},
{"type":"Feature","properties":{"osm_id":"9468323994","code":2725,"fclass":"artwork","name":null},"geometry":{"type":"Point","coordinates":[79.8427041,6.9306616]}},
{"type":"Feature","properties":{"osm_id":"9482289804","code":2725,"fclass":"artwork","name":"D.S.Senanayeke"},"geometry":{"type":"Point","coordinates":[79.8750222,6.909161]}},
{"type":"Feature","properties":{"osm_id":"9485460857","code":2725,"fclass":"artwork","name":null},"geometry":{"type":"Point","coordinates":[79.8439029,6.9281529]}},
{"type":"Feature","properties":{"osm_id":"9504239965","code":2725,"fclass":"artwork","name":null},"geometry":{"type":"Point","coordinates":[79.8599924,6.8975742]}},
{"type":"Feature","properties":{"osm_id":"9504239966","code":2725,"fclass":"artwork","name":null},"geometry":{"type":"Point","coordinates":[79.8598247,6.8971888]}},
{"type":"Feature","properties":{"osm_id":"9586960661","code":2725,"fclass":"artwork","name":null},"geometry":{"type":"Point","coordinates":[79.8497822,6.9319503]}},
{"type":"Feature","properties":{"osm_id":"9655852290","code":2724,"fclass":"memorial","name":null},"geometry":{"type":"Point","coordinates":[80.210771,6.9539892]}},
{"type":"Feature","properties":{"osm_id":"9743722474","code":2304,"fclass":"pub","name":"Capital Tavern"},"geometry":{"type":"Point","coordinates":[79.930241,6.8678386]}},
{"type":"Feature","properties":{"osm_id":"9883236031","code":2724,"fclass":"memorial","name":"Bandaranayake Memorial Hall"},"geometry":{"type":"Point","coordinates":[80.0583372,7.1538322]}},
{"type":"Feature","properties":{"osm_id":"10116052780","code":2725,"fclass":"artwork","name":"Ho Chi-Minh"},"geometry":{"type":"Point","coordinates":[79.8588553,6.9119901]}},
{"type":"Feature","properties":{"osm_id":"10137897158","code":2724,"fclass":"memorial","name":"T.B. Ilangararne"},"geometry":{"type":"Point","coordinates":[79.8506042,6.9168857]}},
{"type":"Feature","properties":{"osm_id":"10137950663","code":2725,"fclass":"artwork","name":null},"geometry":{"type":"Point","coordinates":[79.8543128,6.9158968]}},
{"type":"Feature","properties":{"osm_id":"10159002252","code":2725,"fclass":"artwork","name":"Vihara maha devi"},"geometry":{"type":"Point","coordinates":[79.863193,6.9140967]}},
{"type":"Feature","properties":{"osm_id":"10160885071","code":2723,"fclass":"monument","name":"Golden Jubilee 1917-1967"},"geometry":{"type":"Point","coordinates":[79.8581929,6.9134897]}},
{"type":"Feature","properties":{"osm_id":"10204233717","code":2721,"fclass":"attraction","name":null},"geometry":{"type":"Point","coordinates":[79.8832732,6.7775947]}},
{"type":"Feature","properties":{"osm_id":"10230399125","code":2724,"fclass":"memorial","name":null},"geometry":{"type":"Point","coordinates":[79.9071571,6.9033505]}},
{"type":"Feature","properties":{"osm_id":"10232700344","code":2725,"fclass":"artwork","name":"Drummer and Elephant"},"geometry":{"type":"Point","coordinates":[79.8556103,6.9165439]}},
{"type":"Feature","properties":{"osm_id":"10793137786","code":2724,"fclass":"memorial","name":"Nalanda War Memorial"},"geometry":{"type":"Point","coordinates":[79.8750824,6.9239259]}},
{"type":"Feature","properties":{"osm_id":"10797328084","code":2725,"fclass":"artwork","name":"Buddha Statue"},"geometry":{"type":"Point","coordinates":[80.0001436,6.4493615]}},
{"type":"Feature","properties":{"osm_id":"10933264323","code":2950,"fclass":"tower","name":null},"geometry":{"type":"Point","coordinates":[79.9606126,6.5853952]}},
{"type":"Feature","properties":{"osm_id":"10933264324","code":2724,"fclass":"memorial","name":null},"geometry":{"type":"Point","coordinates":[79.9605343,6.5855523]}},
{"type":"Feature","properties":{"osm_id":"11039945357","code":2950,"fclass":"tower","name":null},"geometry":{"type":"Point","coordinates":[80.1409146,6.5941144]}},
{"type":"Feature","properties":{"osm_id":"11046689026","code":2723,"fclass":"monument","name":null},"geometry":{"type":"Point","coordinates":[79.9525708,6.6127161]}},
{"type":"Feature","properties":{"osm_id":"11052616533","code":2723,"fclass":"monument","name":null},"geometry":{"type":"Point","coordinates":[79.9356212,6.6960238]}},
{"type":"Feature","properties":{"osm_id":"11056005905","code":2721,"fclass":"attraction","name":null},"geometry":{"type":"Point","coordinates":[79.8443487,6.936476]}},
{"type":"Feature","properties":{"osm_id":"11134292004","code":2723,"fclass":"monument","name":"Jayawadanagama Monument"},"geometry":{"type":"Point","coordinates":[79.9408927,6.8860539]}},
{"type":"Feature","properties":{"osm_id":"11142946366","code":2422,"fclass":"camp_site","name":"play ground"},"geometry":{"type":"Point","coordinates":[80.1063264,6.4709447]}},
{"type":"Feature","properties":{"osm_id":"11288435594","code":2955,"fclass":"lighthouse","name":null},"geometry":{"type":"Point","coordinates":[79.9440481,6.631711]}},
{"type":"Feature","properties":{"osm_id":"11288435595","code":2955,"fclass":"lighthouse","name":null},"geometry":{"type":"Point","coordinates":[79.9437672,6.6331406]}},
{"type":"Feature","properties":{"osm_id":"11288435606","code":2955,"fclass":"lighthouse","name":null},"geometry":{"type":"Point","coordinates":[79.9432926,6.6336878]}},
{"type":"Feature","properties":{"osm_id":"11529364269","code":2725,"fclass":"artwork","name":null},"geometry":{"type":"Point","coordinates":[79.8783494,6.9279806]}},
{"type":"Feature","properties":{"osm_id":"11529364270","code":2725,"fclass":"artwork","name":null},"geometry":{"type":"Point","coordinates":[79.8410181,7.2285038]}},
{"type":"Feature","properties":{"osm_id":"11610794969","code":2202,"fclass":"nightclub","name":null},"geometry":{"type":"Point","coordinates":[79.8577947,6.8927506]}},
{"type":"Feature","properties":{"osm_id":"11613794169","code":2202,"fclass":"nightclub","name":null},"geometry":{"type":"Point","coordinates":[79.8415516,6.9332724]}},
{"type":"Feature","properties":{"osm_id":"11715420369","code":2422,"fclass":"camp_site","name":null},"geometry":{"type":"Point","coordinates":[79.8773197,7.1532055]}},
{"type":"Feature","properties":{"osm_id":"11775236168","code":2724,"fclass":"memorial","name":null},"geometry":{"type":"Point","coordinates":[80.0933508,6.9110896]}},
{"type":"Feature","properties":{"osm_id":"12002229770","code":2725,"fclass":"artwork","name":"Soratha Statue"},"geometry":{"type":"Point","coordinates":[79.9051948,6.8537729]}},
{"type":"Feature","properties":{"osm_id":"12100573146","code":2725,"fclass":"artwork","name":"Buddha Statue"},"geometry":{"type":"Point","coordinates":[79.9243215,7.0288593]}},
{"type":"Feature","properties":{"osm_id":"12115411221","code":2725,"fclass":"artwork","name":"Charles Henry de Soysa Statue"},"geometry":{"type":"Point","coordinates":[79.864775,6.9172946]}},
{"type":"Feature","properties":{"osm_id":"12123492854","code":2725,"fclass":"artwork","name":"Buddha Statue"},"geometry":{"type":"Point","coordinates":[79.8573133,6.9190333]}},
{"type":"Feature","properties":{"osm_id":"12125610450","code":2725,"fclass":"artwork","name":"Buddha Statue"},"geometry":{"type":"Point","coordinates":[79.8778894,6.9213462]}},
{"type":"Feature","properties":{"osm_id":"12351405219","code":2724,"fclass":"memorial","name":null},"geometry":{"type":"Point","coordinates":[80.072232,7.127219]}},
{"type":"Feature","properties":{"osm_id":"12385997022","code":2950,"fclass":"tower","name":null},"geometry":{"type":"Point","coordinates":[80.0944021,7.2500124]}},
{"type":"Feature","properties":{"osm_id":"12410972500","code":2725,"fclass":"artwork","name":"St. Cajeteen's statue"},"geometry":{"type":"Point","coordinates":[79.9212909,7.1215229]}},
{"type":"Feature","properties":{"osm_id":"12470287835","code":2724,"fclass":"memorial","name":null},"geometry":{"type":"Point","coordinates":[79.8490976,6.9127758]}},
{"type":"Feature","properties":{"osm_id":"12477803316","code":2725,"fclass":"artwork","name":"HON.LAKSHMAN KADIRAGAMAR"},"geometry":{"type":"Point","coordinates":[79.851926,6.9122418]}},
{"type":"Feature","properties":{"osm_id":"12478383692","code":2724,"fclass":"memorial","name":null},"geometry":{"type":"Point","coordinates":[79.9110982,6.9030455]}},
{"type":"Feature","properties":{"osm_id":"12486533021","code":2950,"fclass":"tower","name":null},"geometry":{"type":"Point","coordinates":[79.9080388,6.8372517]}},
{"type":"Feature","properties":{"osm_id":"12551096401","code":2721,"fclass":"attraction","name":"Mural"},"geometry":{"type":"Point","coordinates":[79.8514438,6.9248152]}},
{"type":"Feature","properties":{"osm_id":"12551096404","code":2721,"fclass":"attraction","name":"Mural"},"geometry":{"type":"Point","coordinates":[79.8552273,6.9082559]}},
{"type":"Feature","properties":{"osm_id":"12555066001","code":2721,"fclass":"attraction","name":"Pont. escales"},"geometry":{"type":"Point","coordinates":[79.8512807,6.9335295]}}
]
}
