{
"type": "FeatureCollection",
"name": "view_points",
"crs": { "type": "name", "properties": { "name": "urn:ogc:def:crs:OGC:1.3:CRS84" } },
"features": [
{"type":"Feature","properties":{"id":null,"Name":"View point","descriptio":null,"timestamp":null,"begin":null,"end":null,"altitudeMo":null,"tessellate":-1,"extrude":0,"visibility":-1,"drawOrder":null,"icon":null},"geometry":{"type":"Point","coordinates":[79.8563422,7.0501135,0.0]}},
{"type":"Feature","properties":{"id":null,"Name":"View Point","descriptio":null,"timestamp":null,"begin":null,"end":null,"altitudeMo":null,"tessellate":-1,"extrude":0,"visibility":-1,"drawOrder":null,"icon":null},"geometry":{"type":"Point","coordinates":[79.8635952,7.0158898,0.0]}},
{"type":"Feature","properties":{"id":null,"Name":"Duck pond view point","descriptio":null,"timestamp":null,"begin":null,"end":null,"altitudeMo":null,"tessellate":-1,"extrude":0,"visibility":-1,"drawOrder":null,"icon":null},"geometry":{"type":"Point","coordinates":[79.9104172,6.8904767,0.0]}},
{"type":"Feature","properties":{"id":null,"Name":"Sunset View Point","descriptio":null,"timestamp":null,"begin":null,"end":null,"altitudeMo":null,"tessellate":-1,"extrude":0,"visibility":-1,"drawOrder":null,"icon":null},"geometry":{"type":"Point","coordinates":[79.8594002,6.8624118,0.0]}},
{"type":"Feature","properties":{"id":null,"Name":"Wellawatha view point","descriptio":null,"timestamp":null,"begin":null,"end":null,"altitudeMo":null,"tessellate":-1,"extrude":0,"visibility":-1,"drawOrder":null,"icon":null},"geometry":{"type":"Point","coordinates":[79.8591927,6.8654163,0.0]}},
{"type":"Feature","properties":{"id":null,"Name":"???? ???? View Point - Kesbewa","descriptio":null,"timestamp":null,"begin":null,"end":null,"altitudeMo":null,"tessellate":-1,"extrude":0,"visibility":-1,"drawOrder":null,"icon":null},"geometry":{"type":"Point","coordinates":[79.9410547,6.7982743,0.0]}},
{"type":"Feature","properties":{"id":null,"Name":"Colombo and sri pada view point in one line","descriptio":null,"timestamp":null,"begin":null,"end":null,"altitudeMo":null,"tessellate":-1,"extrude":0,"visibility":-1,"drawOrder":null,"icon":null},"geometry":{"type":"Point","coordinates":[80.002772,6.7500343,0.0]}},
{"type":"Feature","properties":{"id":null,"Name":"Sri Pada Viewpoint (on Bridge)","descriptio":null,"timestamp":null,"begin":null,"end":null,"altitudeMo":null,"tessellate":-1,"extrude":0,"visibility":-1,"drawOrder":null,"icon":null},"geometry":{"type":"Point","coordinates":[80.1878424,6.7254801,0.0]}},
{"type":"Feature","properties":{"id":null,"Name":"Airport view point","descriptio":null,"timestamp":null,"begin":null,"end":null,"altitudeMo":null,"tessellate":-1,"extrude":0,"visibility":-1,"drawOrder":null,"icon":null},"geometry":{"type":"Point","coordinates":[79.8974195,7.1984848,0.0]}},
{"type":"Feature","properties":{"id":null,"Name":"Muthurajawela view point","descriptio":null,"timestamp":null,"begin":null,"end":null,"altitudeMo":null,"tessellate":-1,"extrude":0,"visibility":-1,"drawOrder":null,"icon":null},"geometry":{"type":"Point","coordinates":[79.8708083,7.1098929,0.0]}},
{"type":"Feature","properties":{"id":null,"Name":"Pahuruwela View Point","descriptio":null,"timestamp":null,"begin":null,"end":null,"altitudeMo":null,"tessellate":-1,"extrude":0,"visibility":-1,"drawOrder":null,"icon":null},"geometry":{"type":"Point","coordinates":[80.034416,6.9489142,0.0]}},
{"type":"Feature","properties":{"id":null,"Name":"Imbula Mountain Temple View Point","descriptio":null,"timestamp":null,"begin":null,"end":null,"altitudeMo":null,"tessellate":-1,"extrude":0,"visibility":-1,"drawOrder":null,"icon":null},"geometry":{"type":"Point","coordinates":[79.995587,6.853158,0.0]}},
{"type":"Feature","properties":{"id":null,"Name":"Colombo and sri pada view point in one line","descriptio":null,"timestamp":null,"begin":null,"end":null,"altitudeMo":null,"tessellate":-1,"extrude":0,"visibility":-1,"drawOrder":null,"icon":null},"geometry":{"type":"Point","coordinates":[80.002772,6.7500343,0.0]}},
{"type":"Feature","properties":{"id":null,"Name":"Mawak Oya view point","descriptio":null,"timestamp":null,"begin":null,"end":null,"altitudeMo":null,"tessellate":-1,"extrude":0,"visibility":-1,"drawOrder":null,"icon":null},"geometry":{"type":"Point","coordinates":[80.1253359,6.7664222,0.0]}},
{"type":"Feature","properties":{"id":null,"Name":"Sri pada View Point Moronthuduwa","descriptio":null,"timestamp":null,"begin":null,"end":null,"altitudeMo":null,"tessellate":-1,"extrude":0,"visibility":-1,"drawOrder":null,"icon":null},"geometry":{"type":"Point","coordinates":[79.9732023,6.666555,0.0]}},
{"type":"Feature","properties":{"id":null,"Name":"Mawala river view point","descriptio":null,"timestamp":null,"begin":null,"end":null,"altitudeMo":null,"tessellate":-1,"extrude":0,"visibility":-1,"drawOrder":null,"icon":null},"geometry":{"type":"Point","coordinates":[79.958256,6.6657681,0.0]}},
{"type":"Feature","properties":{"id":null,"Name":"View Point of Calido Beach","descriptio":null,"timestamp":null,"begin":null,"end":null,"altitudeMo":null,"tessellate":-1,"extrude":0,"visibility":-1,"drawOrder":null,"icon":null},"geometry":{"type":"Point","coordinates":[79.9544698,6.5884492,0.0]}},
{"type":"Feature","properties":{"id":null,"Name":"Hamilton canal last view point","descriptio":null,"timestamp":null,"begin":null,"end":null,"altitudeMo":null,"tessellate":-1,"extrude":0,"visibility":-1,"drawOrder":null,"icon":null},"geometry":{"type":"Point","coordinates":[79.8481366,7.2716513,0.0]}},
{"type":"Feature","properties":{"id":null,"Name":"Hamilton Canal Viewpoint","descriptio":null,"timestamp":null,"begin":null,"end":null,"altitudeMo":null,"tessellate":-1,"extrude":0,"visibility":-1,"drawOrder":null,"icon":null},"geometry":{"type":"Point","coordinates":[79.8371063,7.2079579,0.0]}},
{"type":"Feature","properties":{"id":null,"Name":"Aliappu View point","descriptio":null,"timestamp":null,"begin":null,"end":null,"altitudeMo":null,"tessellate":-1,"extrude":0,"visibility":-1,"drawOrder":null,"icon":null},"geometry":{"type":"Point","coordinates":[79.8386211,7.1306571,0.0]}},
{"type":"Feature","properties":{"id":null,"Name":"Aircraft Takeoff View Point","descriptio":null,"timestamp":null,"begin":null,"end":null,"altitudeMo":null,"tessellate":-1,"extrude":0,"visibility":-1,"drawOrder":null,"icon":null},"geometry":{"type":"Point","coordinates":[79.8694122,7.1624977,0.0]}}
]
}
